<?xml version="1.0" encoding="utf-8"?>
<gpx xmlns="http://www.topografix.com/GPX/1/1" version="1.1" creator="https://mapy.com/">
	<trk>
		<name>Trasa z Parkoviště do Parkoviště</name>
		<trkseg>
			<trkpt lat="44.010078" lon="16.420349">
				<ele>565.000000</ele>
			</trkpt>
			<trkpt lat="44.010078" lon="16.420315">
				<ele>565.000000</ele>
			</trkpt>
			<trkpt lat="44.010227" lon="16.420143">
				<ele>569.000000</ele>
			</trkpt>
			<trkpt lat="44.010337" lon="16.419910">
				<ele>572.000000</ele>
			</trkpt>
			<trkpt lat="44.010427" lon="16.419847">
				<ele>573.000000</ele>
			</trkpt>
			<trkpt lat="44.010544" lon="16.419766">
				<ele>574.000000</ele>
			</trkpt>
			<trkpt lat="44.010647" lon="16.419649">
				<ele>575.000000</ele>
			</trkpt>
			<trkpt lat="44.010809" lon="16.419523">
				<ele>577.000000</ele>
			</trkpt>
			<trkpt lat="44.010938" lon="16.419334">
				<ele>579.000000</ele>
			</trkpt>
			<trkpt lat="44.010996" lon="16.419307">
				<ele>580.000000</ele>
			</trkpt>
			<trkpt lat="44.011184" lon="16.419164">
				<ele>583.000000</ele>
			</trkpt>
			<trkpt lat="44.011267" lon="16.419074">
				<ele>585.000000</ele>
			</trkpt>
			<trkpt lat="44.011306" lon="16.419038">
				<ele>586.000000</ele>
			</trkpt>
			<trkpt lat="44.011513" lon="16.418787">
				<ele>590.000000</ele>
			</trkpt>
			<trkpt lat="44.011526" lon="16.418707">
				<ele>592.000000</ele>
			</trkpt>
			<trkpt lat="44.011616" lon="16.418634">
				<ele>594.000000</ele>
			</trkpt>
			<trkpt lat="44.011662" lon="16.418454">
				<ele>597.000000</ele>
			</trkpt>
			<trkpt lat="44.011726" lon="16.418328">
				<ele>599.000000</ele>
			</trkpt>
			<trkpt lat="44.011784" lon="16.418265">
				<ele>601.000000</ele>
			</trkpt>
			<trkpt lat="44.011881" lon="16.418168">
				<ele>603.000000</ele>
			</trkpt>
			<trkpt lat="44.012159" lon="16.417826">
				<ele>612.000000</ele>
			</trkpt>
			<trkpt lat="44.012340" lon="16.417565">
				<ele>618.000000</ele>
			</trkpt>
			<trkpt lat="44.012566" lon="16.417179">
				<ele>627.000000</ele>
			</trkpt>
			<trkpt lat="44.012637" lon="16.417143">
				<ele>629.000000</ele>
			</trkpt>
			<trkpt lat="44.012714" lon="16.417009">
				<ele>632.000000</ele>
			</trkpt>
			<trkpt lat="44.012818" lon="16.416892">
				<ele>634.000000</ele>
			</trkpt>
			<trkpt lat="44.012986" lon="16.416757">
				<ele>638.000000</ele>
			</trkpt>
			<trkpt lat="44.013535" lon="16.416560">
				<ele>649.000000</ele>
			</trkpt>
			<trkpt lat="44.013665" lon="16.416407">
				<ele>653.000000</ele>
			</trkpt>
			<trkpt lat="44.013690" lon="16.416361">
				<ele>654.000000</ele>
			</trkpt>
			<trkpt lat="44.013729" lon="16.416370">
				<ele>655.000000</ele>
			</trkpt>
			<trkpt lat="44.013774" lon="16.416344">
				<ele>656.000000</ele>
			</trkpt>
			<trkpt lat="44.014013" lon="16.416128">
				<ele>662.000000</ele>
			</trkpt>
			<trkpt lat="44.014071" lon="16.416101">
				<ele>663.000000</ele>
			</trkpt>
			<trkpt lat="44.014304" lon="16.416083">
				<ele>668.000000</ele>
			</trkpt>
			<trkpt lat="44.014388" lon="16.416074">
				<ele>669.000000</ele>
			</trkpt>
			<trkpt lat="44.014666" lon="16.416164">
				<ele>674.000000</ele>
			</trkpt>
			<trkpt lat="44.014840" lon="16.416164">
				<ele>678.000000</ele>
			</trkpt>
			<trkpt lat="44.015240" lon="16.415841">
				<ele>687.000000</ele>
			</trkpt>
			<trkpt lat="44.015338" lon="16.415678">
				<ele>691.000000</ele>
			</trkpt>
			<trkpt lat="44.015551" lon="16.415428">
				<ele>698.000000</ele>
			</trkpt>
			<trkpt lat="44.015971" lon="16.415229">
				<ele>709.000000</ele>
			</trkpt>
			<trkpt lat="44.016100" lon="16.415239">
				<ele>712.000000</ele>
			</trkpt>
			<trkpt lat="44.016410" lon="16.415338">
				<ele>720.000000</ele>
			</trkpt>
			<trkpt lat="44.016675" lon="16.415338">
				<ele>728.000000</ele>
			</trkpt>
			<trkpt lat="44.016868" lon="16.415311">
				<ele>733.000000</ele>
			</trkpt>
			<trkpt lat="44.017069" lon="16.415158">
				<ele>738.000000</ele>
			</trkpt>
			<trkpt lat="44.017288" lon="16.415068">
				<ele>743.000000</ele>
			</trkpt>
			<trkpt lat="44.017514" lon="16.414799">
				<ele>748.000000</ele>
			</trkpt>
			<trkpt lat="44.017663" lon="16.414690">
				<ele>751.000000</ele>
			</trkpt>
			<trkpt lat="44.017902" lon="16.414313">
				<ele>756.000000</ele>
			</trkpt>
			<trkpt lat="44.018038" lon="16.414053">
				<ele>759.000000</ele>
			</trkpt>
			<trkpt lat="44.018200" lon="16.413909">
				<ele>763.000000</ele>
			</trkpt>
			<trkpt lat="44.018380" lon="16.413711">
				<ele>767.000000</ele>
			</trkpt>
			<trkpt lat="44.018664" lon="16.413478">
				<ele>774.000000</ele>
			</trkpt>
			<trkpt lat="44.018794" lon="16.413235">
				<ele>778.000000</ele>
			</trkpt>
			<trkpt lat="44.019265" lon="16.412867">
				<ele>791.000000</ele>
			</trkpt>
			<trkpt lat="44.019433" lon="16.412678">
				<ele>794.000000</ele>
			</trkpt>
			<trkpt lat="44.019608" lon="16.412336">
				<ele>799.000000</ele>
			</trkpt>
			<trkpt lat="44.020280" lon="16.411717">
				<ele>817.000000</ele>
			</trkpt>
			<trkpt lat="44.020744" lon="16.411367">
				<ele>831.000000</ele>
			</trkpt>
			<trkpt lat="44.021203" lon="16.411097">
				<ele>847.000000</ele>
			</trkpt>
			<trkpt lat="44.021371" lon="16.411070">
				<ele>852.000000</ele>
			</trkpt>
			<trkpt lat="44.021474" lon="16.410927">
				<ele>855.000000</ele>
			</trkpt>
			<trkpt lat="44.021720" lon="16.410541">
				<ele>864.000000</ele>
			</trkpt>
			<trkpt lat="44.021816" lon="16.410065">
				<ele>871.000000</ele>
			</trkpt>
			<trkpt lat="44.021816" lon="16.409472">
				<ele>879.000000</ele>
			</trkpt>
			<trkpt lat="44.022120" lon="16.408770">
				<ele>893.000000</ele>
			</trkpt>
			<trkpt lat="44.022172" lon="16.408681">
				<ele>895.000000</ele>
			</trkpt>
			<trkpt lat="44.023703" lon="16.407935">
				<ele>932.000000</ele>
			</trkpt>
			<trkpt lat="44.024678" lon="16.407612">
				<ele>950.000000</ele>
			</trkpt>
			<trkpt lat="44.024949" lon="16.407602">
				<ele>952.000000</ele>
			</trkpt>
			<trkpt lat="44.025247" lon="16.407388">
				<ele>955.000000</ele>
			</trkpt>
			<trkpt lat="44.025886" lon="16.407064">
				<ele>962.000000</ele>
			</trkpt>
			<trkpt lat="44.027314" lon="16.406659">
				<ele>990.000000</ele>
			</trkpt>
			<trkpt lat="44.027630" lon="16.406453">
				<ele>999.000000</ele>
			</trkpt>
			<trkpt lat="44.027753" lon="16.406444">
				<ele>1003.000000</ele>
			</trkpt>
			<trkpt lat="44.028043" lon="16.406570">
				<ele>1012.000000</ele>
			</trkpt>
			<trkpt lat="44.028057" lon="16.406678">
				<ele>1014.000000</ele>
			</trkpt>
			<trkpt lat="44.028256" lon="16.406633">
				<ele>1018.000000</ele>
			</trkpt>
			<trkpt lat="44.028444" lon="16.406659">
				<ele>1024.000000</ele>
			</trkpt>
			<trkpt lat="44.028541" lon="16.406390">
				<ele>1030.000000</ele>
			</trkpt>
			<trkpt lat="44.028889" lon="16.406920">
				<ele>1040.000000</ele>
			</trkpt>
			<trkpt lat="44.029071" lon="16.407136">
				<ele>1047.000000</ele>
			</trkpt>
			<trkpt lat="44.029083" lon="16.407271">
				<ele>1050.000000</ele>
			</trkpt>
			<trkpt lat="44.029400" lon="16.407082">
				<ele>1061.000000</ele>
			</trkpt>
			<trkpt lat="44.029439" lon="16.407118">
				<ele>1062.000000</ele>
			</trkpt>
			<trkpt lat="44.029458" lon="16.407675">
				<ele>1072.000000</ele>
			</trkpt>
			<trkpt lat="44.029949" lon="16.406920">
				<ele>1092.000000</ele>
			</trkpt>
			<trkpt lat="44.030111" lon="16.407055">
				<ele>1101.000000</ele>
			</trkpt>
			<trkpt lat="44.030155" lon="16.406946">
				<ele>1103.000000</ele>
			</trkpt>
			<trkpt lat="44.030194" lon="16.406975">
				<ele>1104.000000</ele>
			</trkpt>
			<trkpt lat="44.030233" lon="16.406875">
				<ele>1106.000000</ele>
			</trkpt>
			<trkpt lat="44.030214" lon="16.406642">
				<ele>1110.000000</ele>
			</trkpt>
			<trkpt lat="44.030317" lon="16.406516">
				<ele>1116.000000</ele>
			</trkpt>
			<trkpt lat="44.030323" lon="16.406336">
				<ele>1121.000000</ele>
			</trkpt>
			<trkpt lat="44.030472" lon="16.406489">
				<ele>1126.000000</ele>
			</trkpt>
			<trkpt lat="44.030472" lon="16.406067">
				<ele>1134.000000</ele>
			</trkpt>
			<trkpt lat="44.030756" lon="16.405474">
				<ele>1149.000000</ele>
			</trkpt>
			<trkpt lat="44.031389" lon="16.405105">
				<ele>1171.000000</ele>
			</trkpt>
			<trkpt lat="44.031628" lon="16.405007">
				<ele>1179.000000</ele>
			</trkpt>
			<trkpt lat="44.031900" lon="16.405042">
				<ele>1188.000000</ele>
			</trkpt>
			<trkpt lat="44.032183" lon="16.404801">
				<ele>1197.000000</ele>
			</trkpt>
			<trkpt lat="44.032791" lon="16.404755">
				<ele>1215.000000</ele>
			</trkpt>
			<trkpt lat="44.033113" lon="16.404675">
				<ele>1223.000000</ele>
			</trkpt>
			<trkpt lat="44.033365" lon="16.404531">
				<ele>1229.000000</ele>
			</trkpt>
			<trkpt lat="44.035103" lon="16.404476">
				<ele>1260.000000</ele>
			</trkpt>
			<trkpt lat="44.035128" lon="16.404476">
				<ele>1260.000000</ele>
			</trkpt>
			<trkpt lat="44.035368" lon="16.404009">
				<ele>1260.000000</ele>
			</trkpt>
			<trkpt lat="44.035561" lon="16.403866">
				<ele>1260.000000</ele>
			</trkpt>
			<trkpt lat="44.036084" lon="16.402994">
				<ele>1260.000000</ele>
			</trkpt>
			<trkpt lat="44.036194" lon="16.402114">
				<ele>1269.000000</ele>
			</trkpt>
			<trkpt lat="44.036291" lon="16.401772">
				<ele>1274.000000</ele>
			</trkpt>
			<trkpt lat="44.036291" lon="16.401495">
				<ele>1278.000000</ele>
			</trkpt>
			<trkpt lat="44.036407" lon="16.401233">
				<ele>1284.000000</ele>
			</trkpt>
			<trkpt lat="44.036504" lon="16.400694">
				<ele>1296.000000</ele>
			</trkpt>
			<trkpt lat="44.036878" lon="16.399851">
				<ele>1313.000000</ele>
			</trkpt>
			<trkpt lat="44.037337" lon="16.399078">
				<ele>1323.000000</ele>
			</trkpt>
			<trkpt lat="44.037886" lon="16.398638">
				<ele>1332.000000</ele>
			</trkpt>
			<trkpt lat="44.038635" lon="16.398359">
				<ele>1345.000000</ele>
			</trkpt>
			<trkpt lat="44.039313" lon="16.397937">
				<ele>1356.000000</ele>
			</trkpt>
			<trkpt lat="44.040560" lon="16.397488">
				<ele>1375.000000</ele>
			</trkpt>
			<trkpt lat="44.040572" lon="16.397478">
				<ele>1375.000000</ele>
			</trkpt>
			<trkpt lat="44.040727" lon="16.397362">
				<ele>1378.000000</ele>
			</trkpt>
			<trkpt lat="44.040857" lon="16.397281">
				<ele>1380.000000</ele>
			</trkpt>
			<trkpt lat="44.040953" lon="16.397174">
				<ele>1383.000000</ele>
			</trkpt>
			<trkpt lat="44.041186" lon="16.396788">
				<ele>1395.000000</ele>
			</trkpt>
			<trkpt lat="44.041257" lon="16.396562">
				<ele>1400.000000</ele>
			</trkpt>
			<trkpt lat="44.041657" lon="16.396212">
				<ele>1410.000000</ele>
			</trkpt>
			<trkpt lat="44.041786" lon="16.395943">
				<ele>1416.000000</ele>
			</trkpt>
			<trkpt lat="44.041619" lon="16.395843">
				<ele>1420.000000</ele>
			</trkpt>
			<trkpt lat="44.041619" lon="16.395637">
				<ele>1422.000000</ele>
			</trkpt>
			<trkpt lat="44.041773" lon="16.395503">
				<ele>1425.000000</ele>
			</trkpt>
			<trkpt lat="44.041870" lon="16.395404">
				<ele>1427.000000</ele>
			</trkpt>
			<trkpt lat="44.041999" lon="16.395233">
				<ele>1429.000000</ele>
			</trkpt>
			<trkpt lat="44.042083" lon="16.394954">
				<ele>1432.000000</ele>
			</trkpt>
			<trkpt lat="44.042245" lon="16.394704">
				<ele>1435.000000</ele>
			</trkpt>
			<trkpt lat="44.042412" lon="16.394155">
				<ele>1441.000000</ele>
			</trkpt>
			<trkpt lat="44.042529" lon="16.393786">
				<ele>1446.000000</ele>
			</trkpt>
			<trkpt lat="44.042665" lon="16.393463">
				<ele>1451.000000</ele>
			</trkpt>
			<trkpt lat="44.042813" lon="16.393130">
				<ele>1457.000000</ele>
			</trkpt>
			<trkpt lat="44.042916" lon="16.393014">
				<ele>1460.000000</ele>
			</trkpt>
			<trkpt lat="44.043026" lon="16.392736">
				<ele>1465.000000</ele>
			</trkpt>
			<trkpt lat="44.043181" lon="16.392564">
				<ele>1469.000000</ele>
			</trkpt>
			<trkpt lat="44.043336" lon="16.392448">
				<ele>1473.000000</ele>
			</trkpt>
			<trkpt lat="44.043465" lon="16.392367">
				<ele>1477.000000</ele>
			</trkpt>
			<trkpt lat="44.043846" lon="16.392341">
				<ele>1486.000000</ele>
			</trkpt>
			<trkpt lat="44.043988" lon="16.392287">
				<ele>1489.000000</ele>
			</trkpt>
			<trkpt lat="44.044072" lon="16.392178">
				<ele>1492.000000</ele>
			</trkpt>
			<trkpt lat="44.044279" lon="16.391972">
				<ele>1499.000000</ele>
			</trkpt>
			<trkpt lat="44.044524" lon="16.391801">
				<ele>1506.000000</ele>
			</trkpt>
			<trkpt lat="44.044705" lon="16.391658">
				<ele>1511.000000</ele>
			</trkpt>
			<trkpt lat="44.044970" lon="16.391568">
				<ele>1516.000000</ele>
			</trkpt>
			<trkpt lat="44.045402" lon="16.391585">
				<ele>1522.000000</ele>
			</trkpt>
			<trkpt lat="44.045564" lon="16.391585">
				<ele>1524.000000</ele>
			</trkpt>
			<trkpt lat="44.045810" lon="16.391559">
				<ele>1527.000000</ele>
			</trkpt>
			<trkpt lat="44.046029" lon="16.391488">
				<ele>1530.000000</ele>
			</trkpt>
			<trkpt lat="44.046351" lon="16.391298">
				<ele>1535.000000</ele>
			</trkpt>
			<trkpt lat="44.046681" lon="16.391172">
				<ele>1540.000000</ele>
			</trkpt>
			<trkpt lat="44.046926" lon="16.391109">
				<ele>1543.000000</ele>
			</trkpt>
			<trkpt lat="44.047152" lon="16.391298">
				<ele>1547.000000</ele>
			</trkpt>
			<trkpt lat="44.047352" lon="16.391343">
				<ele>1550.000000</ele>
			</trkpt>
			<trkpt lat="44.047623" lon="16.391262">
				<ele>1553.000000</ele>
			</trkpt>
			<trkpt lat="44.047940" lon="16.391209">
				<ele>1556.000000</ele>
			</trkpt>
			<trkpt lat="44.048179" lon="16.391136">
				<ele>1559.000000</ele>
			</trkpt>
			<trkpt lat="44.048386" lon="16.390922">
				<ele>1561.000000</ele>
			</trkpt>
			<trkpt lat="44.048657" lon="16.390895">
				<ele>1564.000000</ele>
			</trkpt>
			<trkpt lat="44.048818" lon="16.390849">
				<ele>1566.000000</ele>
			</trkpt>
			<trkpt lat="44.049044" lon="16.390598">
				<ele>1569.000000</ele>
			</trkpt>
			<trkpt lat="44.049212" lon="16.390382">
				<ele>1571.000000</ele>
			</trkpt>
			<trkpt lat="44.049399" lon="16.389960">
				<ele>1578.000000</ele>
			</trkpt>
			<trkpt lat="44.049470" lon="16.389583">
				<ele>1582.000000</ele>
			</trkpt>
			<trkpt lat="44.049651" lon="16.389349">
				<ele>1587.000000</ele>
			</trkpt>
			<trkpt lat="44.049767" lon="16.389142">
				<ele>1590.000000</ele>
			</trkpt>
			<trkpt lat="44.049941" lon="16.388891">
				<ele>1595.000000</ele>
			</trkpt>
			<trkpt lat="44.050057" lon="16.388675">
				<ele>1598.000000</ele>
			</trkpt>
			<trkpt lat="44.050148" lon="16.388532">
				<ele>1601.000000</ele>
			</trkpt>
			<trkpt lat="44.050420" lon="16.388298">
				<ele>1605.000000</ele>
			</trkpt>
			<trkpt lat="44.050536" lon="16.388146">
				<ele>1607.000000</ele>
			</trkpt>
			<trkpt lat="44.050729" lon="16.388002">
				<ele>1610.000000</ele>
			</trkpt>
			<trkpt lat="44.050852" lon="16.387786">
				<ele>1614.000000</ele>
			</trkpt>
			<trkpt lat="44.050942" lon="16.387732">
				<ele>1617.000000</ele>
			</trkpt>
			<trkpt lat="44.051207" lon="16.387319">
				<ele>1631.000000</ele>
			</trkpt>
			<trkpt lat="44.051362" lon="16.387167">
				<ele>1637.000000</ele>
			</trkpt>
			<trkpt lat="44.051427" lon="16.387004">
				<ele>1641.000000</ele>
			</trkpt>
			<trkpt lat="44.051498" lon="16.386817">
				<ele>1643.000000</ele>
			</trkpt>
			<trkpt lat="44.051536" lon="16.386654">
				<ele>1645.000000</ele>
			</trkpt>
			<trkpt lat="44.051685" lon="16.386681">
				<ele>1647.000000</ele>
			</trkpt>
			<trkpt lat="44.051911" lon="16.386690">
				<ele>1652.000000</ele>
			</trkpt>
			<trkpt lat="44.052111" lon="16.386717">
				<ele>1659.000000</ele>
			</trkpt>
			<trkpt lat="44.052324" lon="16.386762">
				<ele>1667.000000</ele>
			</trkpt>
			<trkpt lat="44.052447" lon="16.386780">
				<ele>1671.000000</ele>
			</trkpt>
			<trkpt lat="44.052569" lon="16.386825">
				<ele>1676.000000</ele>
			</trkpt>
			<trkpt lat="44.052783" lon="16.386851">
				<ele>1682.000000</ele>
			</trkpt>
			<trkpt lat="44.052918" lon="16.386762">
				<ele>1687.000000</ele>
			</trkpt>
			<trkpt lat="44.053131" lon="16.386717">
				<ele>1694.000000</ele>
			</trkpt>
			<trkpt lat="44.053279" lon="16.386555">
				<ele>1699.000000</ele>
			</trkpt>
			<trkpt lat="44.053531" lon="16.386251">
				<ele>1709.000000</ele>
			</trkpt>
			<trkpt lat="44.053757" lon="16.385962">
				<ele>1720.000000</ele>
			</trkpt>
			<trkpt lat="44.053970" lon="16.386008">
				<ele>1720.000000</ele>
			</trkpt>
			<trkpt lat="44.054100" lon="16.386106">
				<ele>1720.000000</ele>
			</trkpt>
			<trkpt lat="44.054183" lon="16.386222">
				<ele>1720.000000</ele>
			</trkpt>
			<trkpt lat="44.054267" lon="16.386528">
				<ele>1720.000000</ele>
			</trkpt>
			<trkpt lat="44.054370" lon="16.386664">
				<ele>1720.000000</ele>
			</trkpt>
			<trkpt lat="44.054571" lon="16.386825">
				<ele>1720.000000</ele>
			</trkpt>
			<trkpt lat="44.054623" lon="16.386897">
				<ele>1720.000000</ele>
			</trkpt>
			<trkpt lat="44.054887" lon="16.387211">
				<ele>1720.000000</ele>
			</trkpt>
			<trkpt lat="44.055107" lon="16.387211">
				<ele>1720.000000</ele>
			</trkpt>
			<trkpt lat="44.055371" lon="16.387113">
				<ele>1723.000000</ele>
			</trkpt>
			<trkpt lat="44.055565" lon="16.386987">
				<ele>1727.000000</ele>
			</trkpt>
			<trkpt lat="44.055817" lon="16.386861">
				<ele>1732.000000</ele>
			</trkpt>
			<trkpt lat="44.055946" lon="16.386834">
				<ele>1734.000000</ele>
			</trkpt>
			<trkpt lat="44.056249" lon="16.386843">
				<ele>1740.000000</ele>
			</trkpt>
			<trkpt lat="44.056507" lon="16.386933">
				<ele>1745.000000</ele>
			</trkpt>
			<trkpt lat="44.056656" lon="16.387031">
				<ele>1748.000000</ele>
			</trkpt>
			<trkpt lat="44.056837" lon="16.387211">
				<ele>1752.000000</ele>
			</trkpt>
			<trkpt lat="44.057075" lon="16.387274">
				<ele>1759.000000</ele>
			</trkpt>
			<trkpt lat="44.057250" lon="16.387264">
				<ele>1763.000000</ele>
			</trkpt>
			<trkpt lat="44.057501" lon="16.387113">
				<ele>1769.000000</ele>
			</trkpt>
			<trkpt lat="44.057637" lon="16.387301">
				<ele>1774.000000</ele>
			</trkpt>
			<trkpt lat="44.057792" lon="16.387409">
				<ele>1777.000000</ele>
			</trkpt>
			<trkpt lat="44.057940" lon="16.387417">
				<ele>1780.000000</ele>
			</trkpt>
			<trkpt lat="44.058102" lon="16.387373">
				<ele>1781.000000</ele>
			</trkpt>
			<trkpt lat="44.058231" lon="16.387283">
				<ele>1782.000000</ele>
			</trkpt>
			<trkpt lat="44.058425" lon="16.387058">
				<ele>1784.000000</ele>
			</trkpt>
			<trkpt lat="44.058554" lon="16.386888">
				<ele>1785.000000</ele>
			</trkpt>
			<trkpt lat="44.058702" lon="16.386664">
				<ele>1786.000000</ele>
			</trkpt>
			<trkpt lat="44.058903" lon="16.386448">
				<ele>1788.000000</ele>
			</trkpt>
			<trkpt lat="44.059103" lon="16.386312">
				<ele>1789.000000</ele>
			</trkpt>
			<trkpt lat="44.059251" lon="16.386222">
				<ele>1790.000000</ele>
			</trkpt>
			<trkpt lat="44.059451" lon="16.385972">
				<ele>1792.000000</ele>
			</trkpt>
			<trkpt lat="44.059574" lon="16.385836">
				<ele>1793.000000</ele>
			</trkpt>
			<trkpt lat="44.059735" lon="16.385855">
				<ele>1794.000000</ele>
			</trkpt>
			<trkpt lat="44.060000" lon="16.386025">
				<ele>1796.000000</ele>
			</trkpt>
			<trkpt lat="44.060232" lon="16.386133">
				<ele>1797.000000</ele>
			</trkpt>
			<trkpt lat="44.060445" lon="16.386098">
				<ele>1798.000000</ele>
			</trkpt>
			<trkpt lat="44.060626" lon="16.386178">
				<ele>1799.000000</ele>
			</trkpt>
			<trkpt lat="44.060807" lon="16.386106">
				<ele>1800.000000</ele>
			</trkpt>
			<trkpt lat="44.060936" lon="16.385989">
				<ele>1800.000000</ele>
			</trkpt>
			<trkpt lat="44.060994" lon="16.385792">
				<ele>1800.000000</ele>
			</trkpt>
			<trkpt lat="44.061007" lon="16.385719">
				<ele>1800.000000</ele>
			</trkpt>
			<trkpt lat="44.061020" lon="16.385450">
				<ele>1800.000000</ele>
			</trkpt>
			<trkpt lat="44.061181" lon="16.385145">
				<ele>1800.000000</ele>
			</trkpt>
			<trkpt lat="44.061336" lon="16.384840">
				<ele>1800.000000</ele>
			</trkpt>
			<trkpt lat="44.061375" lon="16.384740">
				<ele>1800.000000</ele>
			</trkpt>
			<trkpt lat="44.061614" lon="16.384517">
				<ele>1800.000000</ele>
			</trkpt>
			<trkpt lat="44.061736" lon="16.384291">
				<ele>1801.000000</ele>
			</trkpt>
			<trkpt lat="44.061794" lon="16.383932">
				<ele>1804.000000</ele>
			</trkpt>
			<trkpt lat="44.061872" lon="16.383708">
				<ele>1807.000000</ele>
			</trkpt>
			<trkpt lat="44.061924" lon="16.383546">
				<ele>1809.000000</ele>
			</trkpt>
			<trkpt lat="44.062066" lon="16.383232">
				<ele>1813.000000</ele>
			</trkpt>
			<trkpt lat="44.062272" lon="16.383061">
				<ele>1817.000000</ele>
			</trkpt>
			<trkpt lat="44.062376" lon="16.382917">
				<ele>1819.000000</ele>
			</trkpt>
			<trkpt lat="44.062479" lon="16.382909">
				<ele>1820.000000</ele>
			</trkpt>
			<trkpt lat="44.062479" lon="16.382909">
				<ele>1820.000000</ele>
			</trkpt>
			<trkpt lat="44.062376" lon="16.382917">
				<ele>1819.000000</ele>
			</trkpt>
			<trkpt lat="44.062330" lon="16.382620">
				<ele>1815.000000</ele>
			</trkpt>
			<trkpt lat="44.062337" lon="16.382504">
				<ele>1813.000000</ele>
			</trkpt>
			<trkpt lat="44.062382" lon="16.382387">
				<ele>1811.000000</ele>
			</trkpt>
			<trkpt lat="44.062369" lon="16.382234">
				<ele>1809.000000</ele>
			</trkpt>
			<trkpt lat="44.062317" lon="16.382136">
				<ele>1807.000000</ele>
			</trkpt>
			<trkpt lat="44.062304" lon="16.381964">
				<ele>1804.000000</ele>
			</trkpt>
			<trkpt lat="44.062188" lon="16.381875">
				<ele>1800.000000</ele>
			</trkpt>
			<trkpt lat="44.062150" lon="16.381695">
				<ele>1800.000000</ele>
			</trkpt>
			<trkpt lat="44.061840" lon="16.381390">
				<ele>1800.000000</ele>
			</trkpt>
			<trkpt lat="44.061549" lon="16.380985">
				<ele>1800.000000</ele>
			</trkpt>
			<trkpt lat="44.061478" lon="16.380922">
				<ele>1800.000000</ele>
			</trkpt>
			<trkpt lat="44.061181" lon="16.380951">
				<ele>1800.000000</ele>
			</trkpt>
			<trkpt lat="44.061085" lon="16.380914">
				<ele>1798.000000</ele>
			</trkpt>
			<trkpt lat="44.061020" lon="16.380842">
				<ele>1796.000000</ele>
			</trkpt>
			<trkpt lat="44.060871" lon="16.380798">
				<ele>1793.000000</ele>
			</trkpt>
			<trkpt lat="44.060800" lon="16.380662">
				<ele>1791.000000</ele>
			</trkpt>
			<trkpt lat="44.060749" lon="16.380519">
				<ele>1790.000000</ele>
			</trkpt>
			<trkpt lat="44.060626" lon="16.380482">
				<ele>1790.000000</ele>
			</trkpt>
			<trkpt lat="44.060484" lon="16.380366">
				<ele>1790.000000</ele>
			</trkpt>
			<trkpt lat="44.060316" lon="16.380312">
				<ele>1790.000000</ele>
			</trkpt>
			<trkpt lat="44.060064" lon="16.380087">
				<ele>1790.000000</ele>
			</trkpt>
			<trkpt lat="44.059690" lon="16.380079">
				<ele>1790.000000</ele>
			</trkpt>
			<trkpt lat="44.059580" lon="16.380025">
				<ele>1790.000000</ele>
			</trkpt>
			<trkpt lat="44.059361" lon="16.379693">
				<ele>1790.000000</ele>
			</trkpt>
			<trkpt lat="44.059329" lon="16.379557">
				<ele>1790.000000</ele>
			</trkpt>
			<trkpt lat="44.059257" lon="16.379486">
				<ele>1789.000000</ele>
			</trkpt>
			<trkpt lat="44.059064" lon="16.379377">
				<ele>1784.000000</ele>
			</trkpt>
			<trkpt lat="44.058889" lon="16.379369">
				<ele>1780.000000</ele>
			</trkpt>
			<trkpt lat="44.058728" lon="16.379207">
				<ele>1777.000000</ele>
			</trkpt>
			<trkpt lat="44.058573" lon="16.379171">
				<ele>1774.000000</ele>
			</trkpt>
			<trkpt lat="44.058282" lon="16.378928">
				<ele>1768.000000</ele>
			</trkpt>
			<trkpt lat="44.057953" lon="16.378838">
				<ele>1762.000000</ele>
			</trkpt>
			<trkpt lat="44.057753" lon="16.378901">
				<ele>1758.000000</ele>
			</trkpt>
			<trkpt lat="44.057431" lon="16.378821">
				<ele>1749.000000</ele>
			</trkpt>
			<trkpt lat="44.057191" lon="16.378821">
				<ele>1741.000000</ele>
			</trkpt>
			<trkpt lat="44.057063" lon="16.378893">
				<ele>1736.000000</ele>
			</trkpt>
			<trkpt lat="44.056888" lon="16.378911">
				<ele>1730.000000</ele>
			</trkpt>
			<trkpt lat="44.056798" lon="16.378983">
				<ele>1727.000000</ele>
			</trkpt>
			<trkpt lat="44.056636" lon="16.379108">
				<ele>1722.000000</ele>
			</trkpt>
			<trkpt lat="44.056565" lon="16.379127">
				<ele>1720.000000</ele>
			</trkpt>
			<trkpt lat="44.056314" lon="16.379064">
				<ele>1713.000000</ele>
			</trkpt>
			<trkpt lat="44.056120" lon="16.379135">
				<ele>1707.000000</ele>
			</trkpt>
			<trkpt lat="44.056029" lon="16.379108">
				<ele>1704.000000</ele>
			</trkpt>
			<trkpt lat="44.055933" lon="16.379135">
				<ele>1701.000000</ele>
			</trkpt>
			<trkpt lat="44.055830" lon="16.379081">
				<ele>1698.000000</ele>
			</trkpt>
			<trkpt lat="44.055733" lon="16.379144">
				<ele>1696.000000</ele>
			</trkpt>
			<trkpt lat="44.055597" lon="16.379100">
				<ele>1692.000000</ele>
			</trkpt>
			<trkpt lat="44.055351" lon="16.379207">
				<ele>1688.000000</ele>
			</trkpt>
			<trkpt lat="44.055145" lon="16.379440">
				<ele>1684.000000</ele>
			</trkpt>
			<trkpt lat="44.055016" lon="16.379522">
				<ele>1682.000000</ele>
			</trkpt>
			<trkpt lat="44.054810" lon="16.379557">
				<ele>1679.000000</ele>
			</trkpt>
			<trkpt lat="44.054668" lon="16.379756">
				<ele>1678.000000</ele>
			</trkpt>
			<trkpt lat="44.054629" lon="16.379819">
				<ele>1678.000000</ele>
			</trkpt>
			<trkpt lat="44.054564" lon="16.379880">
				<ele>1677.000000</ele>
			</trkpt>
			<trkpt lat="44.054538" lon="16.379998">
				<ele>1677.000000</ele>
			</trkpt>
			<trkpt lat="44.054377" lon="16.380006">
				<ele>1676.000000</ele>
			</trkpt>
			<trkpt lat="44.054260" lon="16.380159">
				<ele>1675.000000</ele>
			</trkpt>
			<trkpt lat="44.054209" lon="16.380267">
				<ele>1674.000000</ele>
			</trkpt>
			<trkpt lat="44.053990" lon="16.380564">
				<ele>1672.000000</ele>
			</trkpt>
			<trkpt lat="44.053783" lon="16.380591">
				<ele>1671.000000</ele>
			</trkpt>
			<trkpt lat="44.053699" lon="16.380662">
				<ele>1670.000000</ele>
			</trkpt>
			<trkpt lat="44.053583" lon="16.380662">
				<ele>1668.000000</ele>
			</trkpt>
			<trkpt lat="44.053434" lon="16.380626">
				<ele>1664.000000</ele>
			</trkpt>
			<trkpt lat="44.053241" lon="16.380681">
				<ele>1660.000000</ele>
			</trkpt>
			<trkpt lat="44.052744" lon="16.380645">
				<ele>1656.000000</ele>
			</trkpt>
			<trkpt lat="44.052530" lon="16.380519">
				<ele>1655.000000</ele>
			</trkpt>
			<trkpt lat="44.052408" lon="16.380393">
				<ele>1654.000000</ele>
			</trkpt>
			<trkpt lat="44.051995" lon="16.380438">
				<ele>1651.000000</ele>
			</trkpt>
			<trkpt lat="44.051730" lon="16.380482">
				<ele>1650.000000</ele>
			</trkpt>
			<trkpt lat="44.051439" lon="16.380672">
				<ele>1650.000000</ele>
			</trkpt>
			<trkpt lat="44.051265" lon="16.380824">
				<ele>1650.000000</ele>
			</trkpt>
			<trkpt lat="44.050923" lon="16.381165">
				<ele>1650.000000</ele>
			</trkpt>
			<trkpt lat="44.050781" lon="16.381372">
				<ele>1650.000000</ele>
			</trkpt>
			<trkpt lat="44.050658" lon="16.381471">
				<ele>1650.000000</ele>
			</trkpt>
			<trkpt lat="44.050523" lon="16.381767">
				<ele>1650.000000</ele>
			</trkpt>
			<trkpt lat="44.050464" lon="16.381956">
				<ele>1650.000000</ele>
			</trkpt>
			<trkpt lat="44.050219" lon="16.382369">
				<ele>1650.000000</ele>
			</trkpt>
			<trkpt lat="44.049935" lon="16.382800">
				<ele>1650.000000</ele>
			</trkpt>
			<trkpt lat="44.049516" lon="16.383043">
				<ele>1645.000000</ele>
			</trkpt>
			<trkpt lat="44.049328" lon="16.383249">
				<ele>1643.000000</ele>
			</trkpt>
			<trkpt lat="44.049238" lon="16.383295">
				<ele>1642.000000</ele>
			</trkpt>
			<trkpt lat="44.048999" lon="16.383285">
				<ele>1640.000000</ele>
			</trkpt>
			<trkpt lat="44.048779" lon="16.383483">
				<ele>1641.000000</ele>
			</trkpt>
			<trkpt lat="44.048715" lon="16.383645">
				<ele>1642.000000</ele>
			</trkpt>
			<trkpt lat="44.048612" lon="16.383698">
				<ele>1643.000000</ele>
			</trkpt>
			<trkpt lat="44.048024" lon="16.384346">
				<ele>1648.000000</ele>
			</trkpt>
			<trkpt lat="44.047856" lon="16.384651">
				<ele>1650.000000</ele>
			</trkpt>
			<trkpt lat="44.047611" lon="16.384974">
				<ele>1651.000000</ele>
			</trkpt>
			<trkpt lat="44.047468" lon="16.385270">
				<ele>1652.000000</ele>
			</trkpt>
			<trkpt lat="44.047352" lon="16.385396">
				<ele>1653.000000</ele>
			</trkpt>
			<trkpt lat="44.047049" lon="16.385513">
				<ele>1654.000000</ele>
			</trkpt>
			<trkpt lat="44.046726" lon="16.385630">
				<ele>1655.000000</ele>
			</trkpt>
			<trkpt lat="44.046481" lon="16.385656">
				<ele>1656.000000</ele>
			</trkpt>
			<trkpt lat="44.046332" lon="16.385746">
				<ele>1657.000000</ele>
			</trkpt>
			<trkpt lat="44.046229" lon="16.385882">
				<ele>1658.000000</ele>
			</trkpt>
			<trkpt lat="44.045835" lon="16.385864">
				<ele>1659.000000</ele>
			</trkpt>
			<trkpt lat="44.045732" lon="16.385935">
				<ele>1659.000000</ele>
			</trkpt>
			<trkpt lat="44.045557" lon="16.386133">
				<ele>1660.000000</ele>
			</trkpt>
			<trkpt lat="44.045499" lon="16.386161">
				<ele>1660.000000</ele>
			</trkpt>
			<trkpt lat="44.045280" lon="16.386115">
				<ele>1660.000000</ele>
			</trkpt>
			<trkpt lat="44.044892" lon="16.386151">
				<ele>1658.000000</ele>
			</trkpt>
			<trkpt lat="44.044595" lon="16.386079">
				<ele>1656.000000</ele>
			</trkpt>
			<trkpt lat="44.044292" lon="16.386071">
				<ele>1653.000000</ele>
			</trkpt>
			<trkpt lat="44.043892" lon="16.386312">
				<ele>1650.000000</ele>
			</trkpt>
			<trkpt lat="44.043652" lon="16.386394">
				<ele>1648.000000</ele>
			</trkpt>
			<trkpt lat="44.043607" lon="16.386501">
				<ele>1647.000000</ele>
			</trkpt>
			<trkpt lat="44.043588" lon="16.386717">
				<ele>1646.000000</ele>
			</trkpt>
			<trkpt lat="44.043620" lon="16.386888">
				<ele>1645.000000</ele>
			</trkpt>
			<trkpt lat="44.043614" lon="16.386941">
				<ele>1645.000000</ele>
			</trkpt>
			<trkpt lat="44.043595" lon="16.386996">
				<ele>1645.000000</ele>
			</trkpt>
			<trkpt lat="44.043595" lon="16.386996">
				<ele>1645.000000</ele>
			</trkpt>
			<trkpt lat="44.043595" lon="16.386996">
				<ele>1644.000000</ele>
			</trkpt>
			<trkpt lat="44.043517" lon="16.387004">
				<ele>1644.000000</ele>
			</trkpt>
			<trkpt lat="44.043387" lon="16.386968">
				<ele>1643.000000</ele>
			</trkpt>
			<trkpt lat="44.043213" lon="16.386977">
				<ele>1642.000000</ele>
			</trkpt>
			<trkpt lat="44.043039" lon="16.386960">
				<ele>1640.000000</ele>
			</trkpt>
			<trkpt lat="44.042871" lon="16.387031">
				<ele>1637.000000</ele>
			</trkpt>
			<trkpt lat="44.042729" lon="16.387031">
				<ele>1634.000000</ele>
			</trkpt>
			<trkpt lat="44.042574" lon="16.387058">
				<ele>1631.000000</ele>
			</trkpt>
			<trkpt lat="44.042478" lon="16.387167">
				<ele>1627.000000</ele>
			</trkpt>
			<trkpt lat="44.042012" lon="16.387400">
				<ele>1618.000000</ele>
			</trkpt>
			<trkpt lat="44.041903" lon="16.387543">
				<ele>1617.000000</ele>
			</trkpt>
			<trkpt lat="44.041464" lon="16.387930">
				<ele>1612.000000</ele>
			</trkpt>
			<trkpt lat="44.041380" lon="16.388038">
				<ele>1611.000000</ele>
			</trkpt>
			<trkpt lat="44.040973" lon="16.388379">
				<ele>1603.000000</ele>
			</trkpt>
			<trkpt lat="44.040437" lon="16.389017">
				<ele>1584.000000</ele>
			</trkpt>
			<trkpt lat="44.040192" lon="16.389125">
				<ele>1577.000000</ele>
			</trkpt>
			<trkpt lat="44.039907" lon="16.389394">
				<ele>1568.000000</ele>
			</trkpt>
			<trkpt lat="44.039856" lon="16.389574">
				<ele>1564.000000</ele>
			</trkpt>
			<trkpt lat="44.039701" lon="16.389825">
				<ele>1557.000000</ele>
			</trkpt>
			<trkpt lat="44.039642" lon="16.389977">
				<ele>1553.000000</ele>
			</trkpt>
			<trkpt lat="44.039507" lon="16.390167">
				<ele>1547.000000</ele>
			</trkpt>
			<trkpt lat="44.039500" lon="16.390239">
				<ele>1545.000000</ele>
			</trkpt>
			<trkpt lat="44.039365" lon="16.390446">
				<ele>1539.000000</ele>
			</trkpt>
			<trkpt lat="44.038984" lon="16.391172">
				<ele>1519.000000</ele>
			</trkpt>
			<trkpt lat="44.038842" lon="16.391289">
				<ele>1514.000000</ele>
			</trkpt>
			<trkpt lat="44.038441" lon="16.391721">
				<ele>1500.000000</ele>
			</trkpt>
			<trkpt lat="44.038041" lon="16.391901">
				<ele>1488.000000</ele>
			</trkpt>
			<trkpt lat="44.037770" lon="16.392304">
				<ele>1478.000000</ele>
			</trkpt>
			<trkpt lat="44.037305" lon="16.392637">
				<ele>1464.000000</ele>
			</trkpt>
			<trkpt lat="44.037066" lon="16.392744">
				<ele>1457.000000</ele>
			</trkpt>
			<trkpt lat="44.036878" lon="16.392744">
				<ele>1451.000000</ele>
			</trkpt>
			<trkpt lat="44.036711" lon="16.392889">
				<ele>1445.000000</ele>
			</trkpt>
			<trkpt lat="44.036562" lon="16.392906">
				<ele>1441.000000</ele>
			</trkpt>
			<trkpt lat="44.036471" lon="16.392969">
				<ele>1437.000000</ele>
			</trkpt>
			<trkpt lat="44.036368" lon="16.393096">
				<ele>1433.000000</ele>
			</trkpt>
			<trkpt lat="44.036033" lon="16.393212">
				<ele>1422.000000</ele>
			</trkpt>
			<trkpt lat="44.035761" lon="16.393526">
				<ele>1410.000000</ele>
			</trkpt>
			<trkpt lat="44.035606" lon="16.393635">
				<ele>1403.000000</ele>
			</trkpt>
			<trkpt lat="44.035451" lon="16.393696">
				<ele>1397.000000</ele>
			</trkpt>
			<trkpt lat="44.035413" lon="16.393786">
				<ele>1395.000000</ele>
			</trkpt>
			<trkpt lat="44.035309" lon="16.393904">
				<ele>1390.000000</ele>
			</trkpt>
			<trkpt lat="44.035277" lon="16.393841">
				<ele>1388.000000</ele>
			</trkpt>
			<trkpt lat="44.035122" lon="16.393948">
				<ele>1381.000000</ele>
			</trkpt>
			<trkpt lat="44.035006" lon="16.394191">
				<ele>1374.000000</ele>
			</trkpt>
			<trkpt lat="44.034812" lon="16.394201">
				<ele>1366.000000</ele>
			</trkpt>
			<trkpt lat="44.034625" lon="16.394299">
				<ele>1359.000000</ele>
			</trkpt>
			<trkpt lat="44.034509" lon="16.394352">
				<ele>1354.000000</ele>
			</trkpt>
			<trkpt lat="44.034315" lon="16.394398">
				<ele>1347.000000</ele>
			</trkpt>
			<trkpt lat="44.034089" lon="16.394551">
				<ele>1336.000000</ele>
			</trkpt>
			<trkpt lat="44.033901" lon="16.394559">
				<ele>1328.000000</ele>
			</trkpt>
			<trkpt lat="44.033604" lon="16.394828">
				<ele>1315.000000</ele>
			</trkpt>
			<trkpt lat="44.033372" lon="16.394973">
				<ele>1307.000000</ele>
			</trkpt>
			<trkpt lat="44.033255" lon="16.394946">
				<ele>1304.000000</ele>
			</trkpt>
			<trkpt lat="44.033101" lon="16.394973">
				<ele>1300.000000</ele>
			</trkpt>
			<trkpt lat="44.032971" lon="16.394946">
				<ele>1298.000000</ele>
			</trkpt>
			<trkpt lat="44.032791" lon="16.394721">
				<ele>1293.000000</ele>
			</trkpt>
			<trkpt lat="44.032577" lon="16.394614">
				<ele>1289.000000</ele>
			</trkpt>
			<trkpt lat="44.032209" lon="16.394730">
				<ele>1283.000000</ele>
			</trkpt>
			<trkpt lat="44.031977" lon="16.394738">
				<ele>1280.000000</ele>
			</trkpt>
			<trkpt lat="44.031757" lon="16.394677">
				<ele>1277.000000</ele>
			</trkpt>
			<trkpt lat="44.031635" lon="16.394694">
				<ele>1275.000000</ele>
			</trkpt>
			<trkpt lat="44.031564" lon="16.394685">
				<ele>1274.000000</ele>
			</trkpt>
			<trkpt lat="44.031454" lon="16.394677">
				<ele>1272.000000</ele>
			</trkpt>
			<trkpt lat="44.031370" lon="16.394784">
				<ele>1270.000000</ele>
			</trkpt>
			<trkpt lat="44.031221" lon="16.395243">
				<ele>1264.000000</ele>
			</trkpt>
			<trkpt lat="44.031066" lon="16.395413">
				<ele>1260.000000</ele>
			</trkpt>
			<trkpt lat="44.031021" lon="16.395556">
				<ele>1258.000000</ele>
			</trkpt>
			<trkpt lat="44.031047" lon="16.395754">
				<ele>1257.000000</ele>
			</trkpt>
			<trkpt lat="44.031421" lon="16.396788">
				<ele>1244.000000</ele>
			</trkpt>
			<trkpt lat="44.031383" lon="16.397164">
				<ele>1240.000000</ele>
			</trkpt>
			<trkpt lat="44.031383" lon="16.397730">
				<ele>1236.000000</ele>
			</trkpt>
			<trkpt lat="44.031615" lon="16.398243">
				<ele>1231.000000</ele>
			</trkpt>
			<trkpt lat="44.031744" lon="16.398404">
				<ele>1230.000000</ele>
			</trkpt>
			<trkpt lat="44.031938" lon="16.398530">
				<ele>1228.000000</ele>
			</trkpt>
			<trkpt lat="44.032087" lon="16.398889">
				<ele>1225.000000</ele>
			</trkpt>
			<trkpt lat="44.032061" lon="16.399114">
				<ele>1223.000000</ele>
			</trkpt>
			<trkpt lat="44.032087" lon="16.399329">
				<ele>1221.000000</ele>
			</trkpt>
			<trkpt lat="44.031938" lon="16.399652">
				<ele>1218.000000</ele>
			</trkpt>
			<trkpt lat="44.031906" lon="16.399985">
				<ele>1215.000000</ele>
			</trkpt>
			<trkpt lat="44.031944" lon="16.400371">
				<ele>1212.000000</ele>
			</trkpt>
			<trkpt lat="44.031938" lon="16.400570">
				<ele>1210.000000</ele>
			</trkpt>
			<trkpt lat="44.031861" lon="16.400812">
				<ele>1207.000000</ele>
			</trkpt>
			<trkpt lat="44.031841" lon="16.401080">
				<ele>1204.000000</ele>
			</trkpt>
			<trkpt lat="44.031867" lon="16.401225">
				<ele>1202.000000</ele>
			</trkpt>
			<trkpt lat="44.031809" lon="16.401459">
				<ele>1199.000000</ele>
			</trkpt>
			<trkpt lat="44.031796" lon="16.401620">
				<ele>1196.000000</ele>
			</trkpt>
			<trkpt lat="44.031763" lon="16.401683">
				<ele>1195.000000</ele>
			</trkpt>
			<trkpt lat="44.031376" lon="16.401675">
				<ele>1187.000000</ele>
			</trkpt>
			<trkpt lat="44.031350" lon="16.401755">
				<ele>1186.000000</ele>
			</trkpt>
			<trkpt lat="44.031434" lon="16.402042">
				<ele>1182.000000</ele>
			</trkpt>
			<trkpt lat="44.031537" lon="16.402249">
				<ele>1179.000000</ele>
			</trkpt>
			<trkpt lat="44.031499" lon="16.402321">
				<ele>1178.000000</ele>
			</trkpt>
			<trkpt lat="44.031409" lon="16.402348">
				<ele>1176.000000</ele>
			</trkpt>
			<trkpt lat="44.031240" lon="16.402348">
				<ele>1173.000000</ele>
			</trkpt>
			<trkpt lat="44.031163" lon="16.402392">
				<ele>1171.000000</ele>
			</trkpt>
			<trkpt lat="44.031041" lon="16.402321">
				<ele>1168.000000</ele>
			</trkpt>
			<trkpt lat="44.030840" lon="16.402321">
				<ele>1165.000000</ele>
			</trkpt>
			<trkpt lat="44.030782" lon="16.402384">
				<ele>1163.000000</ele>
			</trkpt>
			<trkpt lat="44.030853" lon="16.402671">
				<ele>1159.000000</ele>
			</trkpt>
			<trkpt lat="44.030814" lon="16.402707">
				<ele>1158.000000</ele>
			</trkpt>
			<trkpt lat="44.030646" lon="16.402717">
				<ele>1154.000000</ele>
			</trkpt>
			<trkpt lat="44.030595" lon="16.402778">
				<ele>1153.000000</ele>
			</trkpt>
			<trkpt lat="44.030259" lon="16.402761">
				<ele>1145.000000</ele>
			</trkpt>
			<trkpt lat="44.030233" lon="16.403103">
				<ele>1139.000000</ele>
			</trkpt>
			<trkpt lat="44.029807" lon="16.403048">
				<ele>1128.000000</ele>
			</trkpt>
			<trkpt lat="44.029820" lon="16.403407">
				<ele>1122.000000</ele>
			</trkpt>
			<trkpt lat="44.029464" lon="16.403309">
				<ele>1113.000000</ele>
			</trkpt>
			<trkpt lat="44.029419" lon="16.403380">
				<ele>1112.000000</ele>
			</trkpt>
			<trkpt lat="44.029445" lon="16.403524">
				<ele>1109.000000</ele>
			</trkpt>
			<trkpt lat="44.029393" lon="16.403650">
				<ele>1106.000000</ele>
			</trkpt>
			<trkpt lat="44.029174" lon="16.403579">
				<ele>1099.000000</ele>
			</trkpt>
			<trkpt lat="44.029103" lon="16.403642">
				<ele>1097.000000</ele>
			</trkpt>
			<trkpt lat="44.029051" lon="16.403767">
				<ele>1093.000000</ele>
			</trkpt>
			<trkpt lat="44.029051" lon="16.404279">
				<ele>1085.000000</ele>
			</trkpt>
			<trkpt lat="44.029032" lon="16.404315">
				<ele>1084.000000</ele>
			</trkpt>
			<trkpt lat="44.028889" lon="16.404180">
				<ele>1081.000000</ele>
			</trkpt>
			<trkpt lat="44.028870" lon="16.404207">
				<ele>1080.000000</ele>
			</trkpt>
			<trkpt lat="44.028967" lon="16.404765">
				<ele>1074.000000</ele>
			</trkpt>
			<trkpt lat="44.028761" lon="16.405051">
				<ele>1069.000000</ele>
			</trkpt>
			<trkpt lat="44.028683" lon="16.405294">
				<ele>1065.000000</ele>
			</trkpt>
			<trkpt lat="44.028818" lon="16.405904">
				<ele>1057.000000</ele>
			</trkpt>
			<trkpt lat="44.028993" lon="16.406183">
				<ele>1052.000000</ele>
			</trkpt>
			<trkpt lat="44.028889" lon="16.406902">
				<ele>1041.000000</ele>
			</trkpt>
			<trkpt lat="44.028889" lon="16.406920">
				<ele>1040.000000</ele>
			</trkpt>
			<trkpt lat="44.028541" lon="16.406390">
				<ele>1030.000000</ele>
			</trkpt>
			<trkpt lat="44.028444" lon="16.406659">
				<ele>1024.000000</ele>
			</trkpt>
			<trkpt lat="44.028256" lon="16.406633">
				<ele>1018.000000</ele>
			</trkpt>
			<trkpt lat="44.028057" lon="16.406678">
				<ele>1014.000000</ele>
			</trkpt>
			<trkpt lat="44.028043" lon="16.406570">
				<ele>1012.000000</ele>
			</trkpt>
			<trkpt lat="44.027753" lon="16.406444">
				<ele>1003.000000</ele>
			</trkpt>
			<trkpt lat="44.027630" lon="16.406453">
				<ele>999.000000</ele>
			</trkpt>
			<trkpt lat="44.027314" lon="16.406659">
				<ele>990.000000</ele>
			</trkpt>
			<trkpt lat="44.025886" lon="16.407064">
				<ele>962.000000</ele>
			</trkpt>
			<trkpt lat="44.025247" lon="16.407388">
				<ele>955.000000</ele>
			</trkpt>
			<trkpt lat="44.024949" lon="16.407602">
				<ele>952.000000</ele>
			</trkpt>
			<trkpt lat="44.024678" lon="16.407612">
				<ele>950.000000</ele>
			</trkpt>
			<trkpt lat="44.023703" lon="16.407935">
				<ele>932.000000</ele>
			</trkpt>
			<trkpt lat="44.022172" lon="16.408681">
				<ele>895.000000</ele>
			</trkpt>
			<trkpt lat="44.022120" lon="16.408770">
				<ele>893.000000</ele>
			</trkpt>
			<trkpt lat="44.021816" lon="16.409472">
				<ele>879.000000</ele>
			</trkpt>
			<trkpt lat="44.021816" lon="16.410065">
				<ele>871.000000</ele>
			</trkpt>
			<trkpt lat="44.021720" lon="16.410541">
				<ele>864.000000</ele>
			</trkpt>
			<trkpt lat="44.021474" lon="16.410927">
				<ele>855.000000</ele>
			</trkpt>
			<trkpt lat="44.021371" lon="16.411070">
				<ele>852.000000</ele>
			</trkpt>
			<trkpt lat="44.021203" lon="16.411097">
				<ele>847.000000</ele>
			</trkpt>
			<trkpt lat="44.020744" lon="16.411367">
				<ele>831.000000</ele>
			</trkpt>
			<trkpt lat="44.020280" lon="16.411717">
				<ele>817.000000</ele>
			</trkpt>
			<trkpt lat="44.019608" lon="16.412336">
				<ele>799.000000</ele>
			</trkpt>
			<trkpt lat="44.019433" lon="16.412678">
				<ele>794.000000</ele>
			</trkpt>
			<trkpt lat="44.019265" lon="16.412867">
				<ele>791.000000</ele>
			</trkpt>
			<trkpt lat="44.018794" lon="16.413235">
				<ele>778.000000</ele>
			</trkpt>
			<trkpt lat="44.018664" lon="16.413478">
				<ele>774.000000</ele>
			</trkpt>
			<trkpt lat="44.018380" lon="16.413711">
				<ele>767.000000</ele>
			</trkpt>
			<trkpt lat="44.018200" lon="16.413909">
				<ele>763.000000</ele>
			</trkpt>
			<trkpt lat="44.018038" lon="16.414053">
				<ele>759.000000</ele>
			</trkpt>
			<trkpt lat="44.017902" lon="16.414313">
				<ele>756.000000</ele>
			</trkpt>
			<trkpt lat="44.017663" lon="16.414690">
				<ele>751.000000</ele>
			</trkpt>
			<trkpt lat="44.017514" lon="16.414799">
				<ele>748.000000</ele>
			</trkpt>
			<trkpt lat="44.017288" lon="16.415068">
				<ele>743.000000</ele>
			</trkpt>
			<trkpt lat="44.017069" lon="16.415158">
				<ele>738.000000</ele>
			</trkpt>
			<trkpt lat="44.016868" lon="16.415311">
				<ele>733.000000</ele>
			</trkpt>
			<trkpt lat="44.016675" lon="16.415338">
				<ele>728.000000</ele>
			</trkpt>
			<trkpt lat="44.016410" lon="16.415338">
				<ele>720.000000</ele>
			</trkpt>
			<trkpt lat="44.016100" lon="16.415239">
				<ele>712.000000</ele>
			</trkpt>
			<trkpt lat="44.015971" lon="16.415229">
				<ele>709.000000</ele>
			</trkpt>
			<trkpt lat="44.015551" lon="16.415428">
				<ele>698.000000</ele>
			</trkpt>
			<trkpt lat="44.015338" lon="16.415678">
				<ele>691.000000</ele>
			</trkpt>
			<trkpt lat="44.015240" lon="16.415841">
				<ele>687.000000</ele>
			</trkpt>
			<trkpt lat="44.014840" lon="16.416164">
				<ele>678.000000</ele>
			</trkpt>
			<trkpt lat="44.014666" lon="16.416164">
				<ele>674.000000</ele>
			</trkpt>
			<trkpt lat="44.014388" lon="16.416074">
				<ele>669.000000</ele>
			</trkpt>
			<trkpt lat="44.014304" lon="16.416083">
				<ele>668.000000</ele>
			</trkpt>
			<trkpt lat="44.014071" lon="16.416101">
				<ele>663.000000</ele>
			</trkpt>
			<trkpt lat="44.014013" lon="16.416128">
				<ele>662.000000</ele>
			</trkpt>
			<trkpt lat="44.013774" lon="16.416344">
				<ele>656.000000</ele>
			</trkpt>
			<trkpt lat="44.013729" lon="16.416370">
				<ele>655.000000</ele>
			</trkpt>
			<trkpt lat="44.013690" lon="16.416361">
				<ele>654.000000</ele>
			</trkpt>
			<trkpt lat="44.013665" lon="16.416407">
				<ele>653.000000</ele>
			</trkpt>
			<trkpt lat="44.013535" lon="16.416560">
				<ele>649.000000</ele>
			</trkpt>
			<trkpt lat="44.012986" lon="16.416757">
				<ele>638.000000</ele>
			</trkpt>
			<trkpt lat="44.012818" lon="16.416892">
				<ele>634.000000</ele>
			</trkpt>
			<trkpt lat="44.012714" lon="16.417009">
				<ele>632.000000</ele>
			</trkpt>
			<trkpt lat="44.012637" lon="16.417143">
				<ele>629.000000</ele>
			</trkpt>
			<trkpt lat="44.012566" lon="16.417179">
				<ele>627.000000</ele>
			</trkpt>
			<trkpt lat="44.012340" lon="16.417565">
				<ele>618.000000</ele>
			</trkpt>
			<trkpt lat="44.012159" lon="16.417826">
				<ele>612.000000</ele>
			</trkpt>
			<trkpt lat="44.011881" lon="16.418168">
				<ele>603.000000</ele>
			</trkpt>
			<trkpt lat="44.011784" lon="16.418265">
				<ele>601.000000</ele>
			</trkpt>
			<trkpt lat="44.011726" lon="16.418328">
				<ele>599.000000</ele>
			</trkpt>
			<trkpt lat="44.011662" lon="16.418454">
				<ele>597.000000</ele>
			</trkpt>
			<trkpt lat="44.011616" lon="16.418634">
				<ele>594.000000</ele>
			</trkpt>
			<trkpt lat="44.011526" lon="16.418707">
				<ele>592.000000</ele>
			</trkpt>
			<trkpt lat="44.011513" lon="16.418787">
				<ele>590.000000</ele>
			</trkpt>
			<trkpt lat="44.011306" lon="16.419038">
				<ele>586.000000</ele>
			</trkpt>
			<trkpt lat="44.011267" lon="16.419074">
				<ele>585.000000</ele>
			</trkpt>
			<trkpt lat="44.011184" lon="16.419164">
				<ele>583.000000</ele>
			</trkpt>
			<trkpt lat="44.010996" lon="16.419307">
				<ele>580.000000</ele>
			</trkpt>
			<trkpt lat="44.010938" lon="16.419334">
				<ele>579.000000</ele>
			</trkpt>
			<trkpt lat="44.010809" lon="16.419523">
				<ele>577.000000</ele>
			</trkpt>
			<trkpt lat="44.010647" lon="16.419649">
				<ele>575.000000</ele>
			</trkpt>
			<trkpt lat="44.010544" lon="16.419766">
				<ele>574.000000</ele>
			</trkpt>
			<trkpt lat="44.010427" lon="16.419847">
				<ele>573.000000</ele>
			</trkpt>
			<trkpt lat="44.010337" lon="16.419910">
				<ele>572.000000</ele>
			</trkpt>
			<trkpt lat="44.010227" lon="16.420143">
				<ele>569.000000</ele>
			</trkpt>
			<trkpt lat="44.010078" lon="16.420315">
				<ele>565.000000</ele>
			</trkpt>
			<trkpt lat="44.010078" lon="16.420349">
				<ele>565.000000</ele>
			</trkpt>
		</trkseg>
	</trk>
</gpx>

