<?xml version="1.0" encoding="utf-8"?>
<gpx xmlns="http://www.topografix.com/GPX/1/1" version="1.1" creator="https://mapy.com/">
	<trk>
		<name>Trasa z Parkoviště do Turistický rozcestník</name>
		<trkseg>
			<trkpt lat="50.766240" lon="15.761598">
				<ele>670.000000</ele>
			</trkpt>
			<trkpt lat="50.766155" lon="15.761607">
				<ele>671.000000</ele>
			</trkpt>
			<trkpt lat="50.765723" lon="15.761787">
				<ele>676.000000</ele>
			</trkpt>
			<trkpt lat="50.765467" lon="15.761894">
				<ele>679.000000</ele>
			</trkpt>
			<trkpt lat="50.765343" lon="15.761930">
				<ele>680.000000</ele>
			</trkpt>
			<trkpt lat="50.765183" lon="15.761974">
				<ele>682.000000</ele>
			</trkpt>
			<trkpt lat="50.765053" lon="15.762001">
				<ele>683.000000</ele>
			</trkpt>
			<trkpt lat="50.764877" lon="15.761984">
				<ele>685.000000</ele>
			</trkpt>
			<trkpt lat="50.764632" lon="15.761966">
				<ele>688.000000</ele>
			</trkpt>
			<trkpt lat="50.764541" lon="15.761948">
				<ele>689.000000</ele>
			</trkpt>
			<trkpt lat="50.764223" lon="15.761911">
				<ele>692.000000</ele>
			</trkpt>
			<trkpt lat="50.764036" lon="15.761911">
				<ele>694.000000</ele>
			</trkpt>
			<trkpt lat="50.763893" lon="15.761938">
				<ele>696.000000</ele>
			</trkpt>
			<trkpt lat="50.763769" lon="15.762001">
				<ele>697.000000</ele>
			</trkpt>
			<trkpt lat="50.763604" lon="15.762137">
				<ele>699.000000</ele>
			</trkpt>
			<trkpt lat="50.763575" lon="15.762181">
				<ele>700.000000</ele>
			</trkpt>
			<trkpt lat="50.763434" lon="15.762181">
				<ele>701.000000</ele>
			</trkpt>
			<trkpt lat="50.763206" lon="15.762127">
				<ele>704.000000</ele>
			</trkpt>
			<trkpt lat="50.762905" lon="15.762020">
				<ele>708.000000</ele>
			</trkpt>
			<trkpt lat="50.762700" lon="15.761993">
				<ele>710.000000</ele>
			</trkpt>
			<trkpt lat="50.762462" lon="15.761948">
				<ele>713.000000</ele>
			</trkpt>
			<trkpt lat="50.762325" lon="15.761938">
				<ele>715.000000</ele>
			</trkpt>
			<trkpt lat="50.761990" lon="15.761921">
				<ele>719.000000</ele>
			</trkpt>
			<trkpt lat="50.761547" lon="15.761840">
				<ele>724.000000</ele>
			</trkpt>
			<trkpt lat="50.761132" lon="15.761822">
				<ele>729.000000</ele>
			</trkpt>
			<trkpt lat="50.760246" lon="15.761848">
				<ele>737.000000</ele>
			</trkpt>
			<trkpt lat="50.760092" lon="15.761858">
				<ele>738.000000</ele>
			</trkpt>
			<trkpt lat="50.760001" lon="15.761911">
				<ele>738.000000</ele>
			</trkpt>
			<trkpt lat="50.759910" lon="15.761993">
				<ele>739.000000</ele>
			</trkpt>
			<trkpt lat="50.759734" lon="15.762091">
				<ele>741.000000</ele>
			</trkpt>
			<trkpt lat="50.759643" lon="15.762145">
				<ele>742.000000</ele>
			</trkpt>
			<trkpt lat="50.759530" lon="15.762200">
				<ele>742.000000</ele>
			</trkpt>
			<trkpt lat="50.759467" lon="15.762200">
				<ele>743.000000</ele>
			</trkpt>
			<trkpt lat="50.759427" lon="15.762181">
				<ele>743.000000</ele>
			</trkpt>
			<trkpt lat="50.759279" lon="15.762091">
				<ele>745.000000</ele>
			</trkpt>
			<trkpt lat="50.759121" lon="15.761957">
				<ele>746.000000</ele>
			</trkpt>
			<trkpt lat="50.759029" lon="15.761848">
				<ele>747.000000</ele>
			</trkpt>
			<trkpt lat="50.758433" lon="15.761085">
				<ele>754.000000</ele>
			</trkpt>
			<trkpt lat="50.758450" lon="15.760816">
				<ele>753.000000</ele>
			</trkpt>
			<trkpt lat="50.758478" lon="15.760537">
				<ele>752.000000</ele>
			</trkpt>
			<trkpt lat="50.758518" lon="15.760240">
				<ele>750.000000</ele>
			</trkpt>
			<trkpt lat="50.758586" lon="15.759764">
				<ele>751.000000</ele>
			</trkpt>
			<trkpt lat="50.758648" lon="15.759163">
				<ele>753.000000</ele>
			</trkpt>
			<trkpt lat="50.758575" lon="15.759074">
				<ele>755.000000</ele>
			</trkpt>
			<trkpt lat="50.758518" lon="15.759019">
				<ele>756.000000</ele>
			</trkpt>
			<trkpt lat="50.758439" lon="15.758974">
				<ele>758.000000</ele>
			</trkpt>
			<trkpt lat="50.758336" lon="15.758965">
				<ele>760.000000</ele>
			</trkpt>
			<trkpt lat="50.758200" lon="15.758957">
				<ele>762.000000</ele>
			</trkpt>
			<trkpt lat="50.758092" lon="15.758938">
				<ele>763.000000</ele>
			</trkpt>
			<trkpt lat="50.758018" lon="15.758911">
				<ele>764.000000</ele>
			</trkpt>
			<trkpt lat="50.757955" lon="15.758875">
				<ele>765.000000</ele>
			</trkpt>
			<trkpt lat="50.757296" lon="15.758166">
				<ele>774.000000</ele>
			</trkpt>
			<trkpt lat="50.756916" lon="15.757852">
				<ele>779.000000</ele>
			</trkpt>
			<trkpt lat="50.756700" lon="15.757716">
				<ele>782.000000</ele>
			</trkpt>
			<trkpt lat="50.756620" lon="15.757680">
				<ele>783.000000</ele>
			</trkpt>
			<trkpt lat="50.756432" lon="15.757492">
				<ele>785.000000</ele>
			</trkpt>
			<trkpt lat="50.756330" lon="15.757411">
				<ele>787.000000</ele>
			</trkpt>
			<trkpt lat="50.756245" lon="15.757376">
				<ele>788.000000</ele>
			</trkpt>
			<trkpt lat="50.756069" lon="15.757204">
				<ele>790.000000</ele>
			</trkpt>
			<trkpt lat="50.755835" lon="15.756764">
				<ele>796.000000</ele>
			</trkpt>
			<trkpt lat="50.755660" lon="15.756477">
				<ele>800.000000</ele>
			</trkpt>
			<trkpt lat="50.755472" lon="15.756235">
				<ele>803.000000</ele>
			</trkpt>
			<trkpt lat="50.755330" lon="15.756108">
				<ele>806.000000</ele>
			</trkpt>
			<trkpt lat="50.755233" lon="15.756011">
				<ele>808.000000</ele>
			</trkpt>
			<trkpt lat="50.755154" lon="15.755893">
				<ele>809.000000</ele>
			</trkpt>
			<trkpt lat="50.755063" lon="15.755785">
				<ele>810.000000</ele>
			</trkpt>
			<trkpt lat="50.754921" lon="15.755669">
				<ele>813.000000</ele>
			</trkpt>
			<trkpt lat="50.754795" lon="15.755561">
				<ele>815.000000</ele>
			</trkpt>
			<trkpt lat="50.754682" lon="15.755416">
				<ele>817.000000</ele>
			</trkpt>
			<trkpt lat="50.754296" lon="15.754743">
				<ele>825.000000</ele>
			</trkpt>
			<trkpt lat="50.753943" lon="15.754213">
				<ele>833.000000</ele>
			</trkpt>
			<trkpt lat="50.753659" lon="15.753791">
				<ele>840.000000</ele>
			</trkpt>
			<trkpt lat="50.753591" lon="15.753711">
				<ele>841.000000</ele>
			</trkpt>
			<trkpt lat="50.753483" lon="15.753567">
				<ele>843.000000</ele>
			</trkpt>
			<trkpt lat="50.753352" lon="15.753378">
				<ele>846.000000</ele>
			</trkpt>
			<trkpt lat="50.753210" lon="15.753189">
				<ele>848.000000</ele>
			</trkpt>
			<trkpt lat="50.753142" lon="15.753118">
				<ele>850.000000</ele>
			</trkpt>
			<trkpt lat="50.753034" lon="15.752919">
				<ele>852.000000</ele>
			</trkpt>
			<trkpt lat="50.752915" lon="15.752632">
				<ele>856.000000</ele>
			</trkpt>
			<trkpt lat="50.752761" lon="15.752353">
				<ele>860.000000</ele>
			</trkpt>
			<trkpt lat="50.752642" lon="15.752076">
				<ele>863.000000</ele>
			</trkpt>
			<trkpt lat="50.752551" lon="15.751824">
				<ele>867.000000</ele>
			</trkpt>
			<trkpt lat="50.752499" lon="15.751626">
				<ele>869.000000</ele>
			</trkpt>
			<trkpt lat="50.752426" lon="15.751428">
				<ele>872.000000</ele>
			</trkpt>
			<trkpt lat="50.752341" lon="15.751231">
				<ele>875.000000</ele>
			</trkpt>
			<trkpt lat="50.752244" lon="15.751042">
				<ele>878.000000</ele>
			</trkpt>
			<trkpt lat="50.752159" lon="15.750835">
				<ele>881.000000</ele>
			</trkpt>
			<trkpt lat="50.752017" lon="15.750405">
				<ele>887.000000</ele>
			</trkpt>
			<trkpt lat="50.751647" lon="15.749516">
				<ele>901.000000</ele>
			</trkpt>
			<trkpt lat="50.751346" lon="15.748895">
				<ele>913.000000</ele>
			</trkpt>
			<trkpt lat="50.751090" lon="15.748411">
				<ele>923.000000</ele>
			</trkpt>
			<trkpt lat="50.750795" lon="15.747934">
				<ele>931.000000</ele>
			</trkpt>
			<trkpt lat="50.750124" lon="15.747036">
				<ele>944.000000</ele>
			</trkpt>
			<trkpt lat="50.749937" lon="15.746776">
				<ele>949.000000</ele>
			</trkpt>
			<trkpt lat="50.749874" lon="15.746623">
				<ele>951.000000</ele>
			</trkpt>
			<trkpt lat="50.749811" lon="15.746380">
				<ele>954.000000</ele>
			</trkpt>
			<trkpt lat="50.749538" lon="15.745824">
				<ele>963.000000</ele>
			</trkpt>
			<trkpt lat="50.749090" lon="15.745095">
				<ele>976.000000</ele>
			</trkpt>
			<trkpt lat="50.748743" lon="15.744592">
				<ele>989.000000</ele>
			</trkpt>
			<trkpt lat="50.748624" lon="15.744359">
				<ele>1000.000000</ele>
			</trkpt>
			<trkpt lat="50.748516" lon="15.744224">
				<ele>1001.000000</ele>
			</trkpt>
			<trkpt lat="50.748402" lon="15.744044">
				<ele>1003.000000</ele>
			</trkpt>
			<trkpt lat="50.748322" lon="15.743874">
				<ele>1004.000000</ele>
			</trkpt>
			<trkpt lat="50.748271" lon="15.743713">
				<ele>1005.000000</ele>
			</trkpt>
			<trkpt lat="50.748174" lon="15.743407">
				<ele>1008.000000</ele>
			</trkpt>
			<trkpt lat="50.748129" lon="15.743245">
				<ele>1009.000000</ele>
			</trkpt>
			<trkpt lat="50.748078" lon="15.743092">
				<ele>1010.000000</ele>
			</trkpt>
			<trkpt lat="50.748050" lon="15.742967">
				<ele>1011.000000</ele>
			</trkpt>
			<trkpt lat="50.748021" lon="15.742877">
				<ele>1012.000000</ele>
			</trkpt>
			<trkpt lat="50.747975" lon="15.742759">
				<ele>1014.000000</ele>
			</trkpt>
			<trkpt lat="50.747930" lon="15.742661">
				<ele>1015.000000</ele>
			</trkpt>
			<trkpt lat="50.747896" lon="15.742562">
				<ele>1016.000000</ele>
			</trkpt>
			<trkpt lat="50.747845" lon="15.742455">
				<ele>1017.000000</ele>
			</trkpt>
			<trkpt lat="50.747725" lon="15.742275">
				<ele>1020.000000</ele>
			</trkpt>
			<trkpt lat="50.747646" lon="15.742131">
				<ele>1022.000000</ele>
			</trkpt>
			<trkpt lat="50.747594" lon="15.741996">
				<ele>1024.000000</ele>
			</trkpt>
			<trkpt lat="50.747561" lon="15.741916">
				<ele>1025.000000</ele>
			</trkpt>
			<trkpt lat="50.747538" lon="15.741816">
				<ele>1026.000000</ele>
			</trkpt>
			<trkpt lat="50.747504" lon="15.741646">
				<ele>1028.000000</ele>
			</trkpt>
			<trkpt lat="50.747475" lon="15.741439">
				<ele>1030.000000</ele>
			</trkpt>
			<trkpt lat="50.747424" lon="15.741134">
				<ele>1033.000000</ele>
			</trkpt>
			<trkpt lat="50.747419" lon="15.741008">
				<ele>1034.000000</ele>
			</trkpt>
			<trkpt lat="50.747407" lon="15.740927">
				<ele>1034.000000</ele>
			</trkpt>
			<trkpt lat="50.747401" lon="15.740874">
				<ele>1035.000000</ele>
			</trkpt>
			<trkpt lat="50.747373" lon="15.740810">
				<ele>1035.000000</ele>
			</trkpt>
			<trkpt lat="50.747339" lon="15.740721">
				<ele>1036.000000</ele>
			</trkpt>
			<trkpt lat="50.747316" lon="15.740595">
				<ele>1037.000000</ele>
			</trkpt>
			<trkpt lat="50.747299" lon="15.740497">
				<ele>1038.000000</ele>
			</trkpt>
			<trkpt lat="50.747288" lon="15.740379">
				<ele>1039.000000</ele>
			</trkpt>
			<trkpt lat="50.747271" lon="15.740281">
				<ele>1040.000000</ele>
			</trkpt>
			<trkpt lat="50.747259" lon="15.740235">
				<ele>1040.000000</ele>
			</trkpt>
			<trkpt lat="50.747236" lon="15.740182">
				<ele>1041.000000</ele>
			</trkpt>
			<trkpt lat="50.747214" lon="15.740109">
				<ele>1042.000000</ele>
			</trkpt>
			<trkpt lat="50.747191" lon="15.740038">
				<ele>1043.000000</ele>
			</trkpt>
			<trkpt lat="50.747157" lon="15.739939">
				<ele>1045.000000</ele>
			</trkpt>
			<trkpt lat="50.747112" lon="15.739849">
				<ele>1046.000000</ele>
			</trkpt>
			<trkpt lat="50.747072" lon="15.739759">
				<ele>1048.000000</ele>
			</trkpt>
			<trkpt lat="50.747038" lon="15.739652">
				<ele>1049.000000</ele>
			</trkpt>
			<trkpt lat="50.747004" lon="15.739562">
				<ele>1051.000000</ele>
			</trkpt>
			<trkpt lat="50.746975" lon="15.739489">
				<ele>1051.000000</ele>
			</trkpt>
			<trkpt lat="50.746935" lon="15.739365">
				<ele>1052.000000</ele>
			</trkpt>
			<trkpt lat="50.746878" lon="15.739229">
				<ele>1054.000000</ele>
			</trkpt>
			<trkpt lat="50.746816" lon="15.739103">
				<ele>1055.000000</ele>
			</trkpt>
			<trkpt lat="50.746742" lon="15.738950">
				<ele>1057.000000</ele>
			</trkpt>
			<trkpt lat="50.746697" lon="15.738879">
				<ele>1058.000000</ele>
			</trkpt>
			<trkpt lat="50.746657" lon="15.738789">
				<ele>1059.000000</ele>
			</trkpt>
			<trkpt lat="50.746577" lon="15.738646">
				<ele>1060.000000</ele>
			</trkpt>
			<trkpt lat="50.746503" lon="15.738501">
				<ele>1063.000000</ele>
			</trkpt>
			<trkpt lat="50.746458" lon="15.738367">
				<ele>1065.000000</ele>
			</trkpt>
			<trkpt lat="50.746412" lon="15.738233">
				<ele>1068.000000</ele>
			</trkpt>
			<trkpt lat="50.746338" lon="15.738017">
				<ele>1071.000000</ele>
			</trkpt>
			<trkpt lat="50.746259" lon="15.737801">
				<ele>1075.000000</ele>
			</trkpt>
			<trkpt lat="50.746151" lon="15.737585">
				<ele>1079.000000</ele>
			</trkpt>
			<trkpt lat="50.746043" lon="15.737388">
				<ele>1081.000000</ele>
			</trkpt>
			<trkpt lat="50.745958" lon="15.737281">
				<ele>1082.000000</ele>
			</trkpt>
			<trkpt lat="50.745907" lon="15.737172">
				<ele>1083.000000</ele>
			</trkpt>
			<trkpt lat="50.745844" lon="15.737082">
				<ele>1084.000000</ele>
			</trkpt>
			<trkpt lat="50.745776" lon="15.736992">
				<ele>1085.000000</ele>
			</trkpt>
			<trkpt lat="50.745713" lon="15.736903">
				<ele>1086.000000</ele>
			</trkpt>
			<trkpt lat="50.745656" lon="15.736813">
				<ele>1086.000000</ele>
			</trkpt>
			<trkpt lat="50.745611" lon="15.736759">
				<ele>1087.000000</ele>
			</trkpt>
			<trkpt lat="50.745565" lon="15.736705">
				<ele>1087.000000</ele>
			</trkpt>
			<trkpt lat="50.745503" lon="15.736625">
				<ele>1088.000000</ele>
			</trkpt>
			<trkpt lat="50.745441" lon="15.736535">
				<ele>1089.000000</ele>
			</trkpt>
			<trkpt lat="50.745361" lon="15.736436">
				<ele>1090.000000</ele>
			</trkpt>
			<trkpt lat="50.745276" lon="15.736346">
				<ele>1091.000000</ele>
			</trkpt>
			<trkpt lat="50.745213" lon="15.736265">
				<ele>1092.000000</ele>
			</trkpt>
			<trkpt lat="50.745145" lon="15.736176">
				<ele>1093.000000</ele>
			</trkpt>
			<trkpt lat="50.745094" lon="15.736059">
				<ele>1094.000000</ele>
			</trkpt>
			<trkpt lat="50.745037" lon="15.735941">
				<ele>1094.000000</ele>
			</trkpt>
			<trkpt lat="50.744940" lon="15.735726">
				<ele>1096.000000</ele>
			</trkpt>
			<trkpt lat="50.744877" lon="15.735610">
				<ele>1097.000000</ele>
			</trkpt>
			<trkpt lat="50.744838" lon="15.735537">
				<ele>1098.000000</ele>
			</trkpt>
			<trkpt lat="50.744792" lon="15.735465">
				<ele>1098.000000</ele>
			</trkpt>
			<trkpt lat="50.744730" lon="15.735367">
				<ele>1099.000000</ele>
			</trkpt>
			<trkpt lat="50.744661" lon="15.735268">
				<ele>1100.000000</ele>
			</trkpt>
			<trkpt lat="50.744610" lon="15.735168">
				<ele>1101.000000</ele>
			</trkpt>
			<trkpt lat="50.744571" lon="15.735088">
				<ele>1102.000000</ele>
			</trkpt>
			<trkpt lat="50.744519" lon="15.734998">
				<ele>1104.000000</ele>
			</trkpt>
			<trkpt lat="50.744474" lon="15.734927">
				<ele>1105.000000</ele>
			</trkpt>
			<trkpt lat="50.744429" lon="15.734855">
				<ele>1106.000000</ele>
			</trkpt>
			<trkpt lat="50.744372" lon="15.734765">
				<ele>1108.000000</ele>
			</trkpt>
			<trkpt lat="50.744355" lon="15.734765">
				<ele>1108.000000</ele>
			</trkpt>
			<trkpt lat="50.744321" lon="15.734774">
				<ele>1108.000000</ele>
			</trkpt>
			<trkpt lat="50.744258" lon="15.734755">
				<ele>1110.000000</ele>
			</trkpt>
			<trkpt lat="50.744167" lon="15.734747">
				<ele>1111.000000</ele>
			</trkpt>
			<trkpt lat="50.744122" lon="15.734702">
				<ele>1113.000000</ele>
			</trkpt>
			<trkpt lat="50.744053" lon="15.734531">
				<ele>1115.000000</ele>
			</trkpt>
			<trkpt lat="50.743798" lon="15.733876">
				<ele>1127.000000</ele>
			</trkpt>
			<trkpt lat="50.743769" lon="15.733795">
				<ele>1129.000000</ele>
			</trkpt>
			<trkpt lat="50.743724" lon="15.733723">
				<ele>1130.000000</ele>
			</trkpt>
			<trkpt lat="50.743690" lon="15.733650">
				<ele>1132.000000</ele>
			</trkpt>
			<trkpt lat="50.743638" lon="15.733560">
				<ele>1134.000000</ele>
			</trkpt>
			<trkpt lat="50.743605" lon="15.733480">
				<ele>1136.000000</ele>
			</trkpt>
			<trkpt lat="50.743559" lon="15.733409">
				<ele>1138.000000</ele>
			</trkpt>
			<trkpt lat="50.743519" lon="15.733363">
				<ele>1139.000000</ele>
			</trkpt>
			<trkpt lat="50.743462" lon="15.733291">
				<ele>1141.000000</ele>
			</trkpt>
			<trkpt lat="50.743417" lon="15.733220">
				<ele>1143.000000</ele>
			</trkpt>
			<trkpt lat="50.743314" lon="15.733121">
				<ele>1147.000000</ele>
			</trkpt>
			<trkpt lat="50.743247" lon="15.733040">
				<ele>1149.000000</ele>
			</trkpt>
			<trkpt lat="50.743178" lon="15.732968">
				<ele>1151.000000</ele>
			</trkpt>
			<trkpt lat="50.743126" lon="15.732933">
				<ele>1152.000000</ele>
			</trkpt>
			<trkpt lat="50.743121" lon="15.732923">
				<ele>1153.000000</ele>
			</trkpt>
			<trkpt lat="50.743082" lon="15.732897">
				<ele>1154.000000</ele>
			</trkpt>
			<trkpt lat="50.743030" lon="15.732843">
				<ele>1155.000000</ele>
			</trkpt>
			<trkpt lat="50.743007" lon="15.732815">
				<ele>1155.000000</ele>
			</trkpt>
			<trkpt lat="50.742979" lon="15.732788">
				<ele>1156.000000</ele>
			</trkpt>
			<trkpt lat="50.742933" lon="15.732761">
				<ele>1157.000000</ele>
			</trkpt>
			<trkpt lat="50.742854" lon="15.732681">
				<ele>1159.000000</ele>
			</trkpt>
			<trkpt lat="50.742791" lon="15.732618">
				<ele>1161.000000</ele>
			</trkpt>
			<trkpt lat="50.742746" lon="15.732555">
				<ele>1162.000000</ele>
			</trkpt>
			<trkpt lat="50.742712" lon="15.732518">
				<ele>1163.000000</ele>
			</trkpt>
			<trkpt lat="50.742689" lon="15.732474">
				<ele>1164.000000</ele>
			</trkpt>
			<trkpt lat="50.742655" lon="15.732447">
				<ele>1164.000000</ele>
			</trkpt>
			<trkpt lat="50.742610" lon="15.732447">
				<ele>1165.000000</ele>
			</trkpt>
			<trkpt lat="50.742559" lon="15.732474">
				<ele>1166.000000</ele>
			</trkpt>
			<trkpt lat="50.742467" lon="15.732537">
				<ele>1168.000000</ele>
			</trkpt>
			<trkpt lat="50.742416" lon="15.732555">
				<ele>1170.000000</ele>
			</trkpt>
			<trkpt lat="50.742365" lon="15.732573">
				<ele>1171.000000</ele>
			</trkpt>
			<trkpt lat="50.742337" lon="15.732564">
				<ele>1171.000000</ele>
			</trkpt>
			<trkpt lat="50.742314" lon="15.732573">
				<ele>1172.000000</ele>
			</trkpt>
			<trkpt lat="50.742286" lon="15.732618">
				<ele>1173.000000</ele>
			</trkpt>
			<trkpt lat="50.742183" lon="15.732671">
				<ele>1175.000000</ele>
			</trkpt>
			<trkpt lat="50.742143" lon="15.732681">
				<ele>1176.000000</ele>
			</trkpt>
			<trkpt lat="50.742047" lon="15.732644">
				<ele>1178.000000</ele>
			</trkpt>
			<trkpt lat="50.741979" lon="15.732663">
				<ele>1179.000000</ele>
			</trkpt>
			<trkpt lat="50.741871" lon="15.732725">
				<ele>1182.000000</ele>
			</trkpt>
			<trkpt lat="50.741836" lon="15.732771">
				<ele>1183.000000</ele>
			</trkpt>
			<trkpt lat="50.741785" lon="15.732807">
				<ele>1185.000000</ele>
			</trkpt>
			<trkpt lat="50.741683" lon="15.732834">
				<ele>1188.000000</ele>
			</trkpt>
			<trkpt lat="50.741643" lon="15.732887">
				<ele>1189.000000</ele>
			</trkpt>
			<trkpt lat="50.741541" lon="15.732950">
				<ele>1192.000000</ele>
			</trkpt>
			<trkpt lat="50.741518" lon="15.732933">
				<ele>1193.000000</ele>
			</trkpt>
			<trkpt lat="50.741506" lon="15.732905">
				<ele>1193.000000</ele>
			</trkpt>
			<trkpt lat="50.741586" lon="15.732654">
				<ele>1198.000000</ele>
			</trkpt>
			<trkpt lat="50.741592" lon="15.732627">
				<ele>1198.000000</ele>
			</trkpt>
			<trkpt lat="50.741581" lon="15.732627">
				<ele>1199.000000</ele>
			</trkpt>
			<trkpt lat="50.741518" lon="15.732681">
				<ele>1201.000000</ele>
			</trkpt>
			<trkpt lat="50.741450" lon="15.732761">
				<ele>1202.000000</ele>
			</trkpt>
			<trkpt lat="50.741354" lon="15.732905">
				<ele>1205.000000</ele>
			</trkpt>
			<trkpt lat="50.741291" lon="15.732986">
				<ele>1207.000000</ele>
			</trkpt>
			<trkpt lat="50.741189" lon="15.733147">
				<ele>1210.000000</ele>
			</trkpt>
			<trkpt lat="50.741126" lon="15.733237">
				<ele>1211.000000</ele>
			</trkpt>
			<trkpt lat="50.741092" lon="15.733273">
				<ele>1212.000000</ele>
			</trkpt>
			<trkpt lat="50.741040" lon="15.733300">
				<ele>1213.000000</ele>
			</trkpt>
			<trkpt lat="50.740944" lon="15.733327">
				<ele>1216.000000</ele>
			</trkpt>
			<trkpt lat="50.740859" lon="15.733354">
				<ele>1217.000000</ele>
			</trkpt>
			<trkpt lat="50.740767" lon="15.733363">
				<ele>1220.000000</ele>
			</trkpt>
			<trkpt lat="50.740506" lon="15.733327">
				<ele>1226.000000</ele>
			</trkpt>
			<trkpt lat="50.740444" lon="15.733319">
				<ele>1228.000000</ele>
			</trkpt>
			<trkpt lat="50.740427" lon="15.733283">
				<ele>1229.000000</ele>
			</trkpt>
			<trkpt lat="50.740415" lon="15.733229">
				<ele>1230.000000</ele>
			</trkpt>
			<trkpt lat="50.740393" lon="15.733050">
				<ele>1232.000000</ele>
			</trkpt>
			<trkpt lat="50.740381" lon="15.733023">
				<ele>1233.000000</ele>
			</trkpt>
			<trkpt lat="50.740387" lon="15.732960">
				<ele>1233.000000</ele>
			</trkpt>
			<trkpt lat="50.740444" lon="15.732905">
				<ele>1235.000000</ele>
			</trkpt>
			<trkpt lat="50.740591" lon="15.732744">
				<ele>1238.000000</ele>
			</trkpt>
			<trkpt lat="50.740597" lon="15.732725">
				<ele>1239.000000</ele>
			</trkpt>
			<trkpt lat="50.740569" lon="15.732429">
				<ele>1244.000000</ele>
			</trkpt>
			<trkpt lat="50.740580" lon="15.732384">
				<ele>1245.000000</ele>
			</trkpt>
			<trkpt lat="50.740694" lon="15.732151">
				<ele>1251.000000</ele>
			</trkpt>
			<trkpt lat="50.740711" lon="15.732079">
				<ele>1252.000000</ele>
			</trkpt>
			<trkpt lat="50.740705" lon="15.731971">
				<ele>1253.000000</ele>
			</trkpt>
			<trkpt lat="50.740700" lon="15.731908">
				<ele>1254.000000</ele>
			</trkpt>
			<trkpt lat="50.740700" lon="15.731855">
				<ele>1254.000000</ele>
			</trkpt>
			<trkpt lat="50.740705" lon="15.731818">
				<ele>1255.000000</ele>
			</trkpt>
			<trkpt lat="50.740717" lon="15.731792">
				<ele>1255.000000</ele>
			</trkpt>
			<trkpt lat="50.740739" lon="15.731773">
				<ele>1256.000000</ele>
			</trkpt>
			<trkpt lat="50.740774" lon="15.731711">
				<ele>1257.000000</ele>
			</trkpt>
			<trkpt lat="50.740808" lon="15.731602">
				<ele>1258.000000</ele>
			</trkpt>
			<trkpt lat="50.740847" lon="15.731531">
				<ele>1259.000000</ele>
			</trkpt>
			<trkpt lat="50.741040" lon="15.731306">
				<ele>1264.000000</ele>
			</trkpt>
			<trkpt lat="50.741143" lon="15.731172">
				<ele>1266.000000</ele>
			</trkpt>
			<trkpt lat="50.741166" lon="15.731100">
				<ele>1267.000000</ele>
			</trkpt>
			<trkpt lat="50.741200" lon="15.731037">
				<ele>1268.000000</ele>
			</trkpt>
			<trkpt lat="50.741228" lon="15.730965">
				<ele>1269.000000</ele>
			</trkpt>
			<trkpt lat="50.741262" lon="15.730920">
				<ele>1270.000000</ele>
			</trkpt>
			<trkpt lat="50.741308" lon="15.730893">
				<ele>1270.000000</ele>
			</trkpt>
			<trkpt lat="50.741348" lon="15.730857">
				<ele>1272.000000</ele>
			</trkpt>
			<trkpt lat="50.741370" lon="15.730803">
				<ele>1273.000000</ele>
			</trkpt>
			<trkpt lat="50.741433" lon="15.730740">
				<ele>1276.000000</ele>
			</trkpt>
			<trkpt lat="50.741473" lon="15.730650">
				<ele>1278.000000</ele>
			</trkpt>
			<trkpt lat="50.741495" lon="15.730606">
				<ele>1279.000000</ele>
			</trkpt>
			<trkpt lat="50.741518" lon="15.730534">
				<ele>1281.000000</ele>
			</trkpt>
			<trkpt lat="50.741569" lon="15.730434">
				<ele>1283.000000</ele>
			</trkpt>
			<trkpt lat="50.741581" lon="15.730318">
				<ele>1286.000000</ele>
			</trkpt>
			<trkpt lat="50.741592" lon="15.730255">
				<ele>1287.000000</ele>
			</trkpt>
			<trkpt lat="50.741614" lon="15.730228">
				<ele>1288.000000</ele>
			</trkpt>
			<trkpt lat="50.741643" lon="15.730210">
				<ele>1289.000000</ele>
			</trkpt>
			<trkpt lat="50.741649" lon="15.730201">
				<ele>1289.000000</ele>
			</trkpt>
			<trkpt lat="50.741643" lon="15.730174">
				<ele>1290.000000</ele>
			</trkpt>
			<trkpt lat="50.741649" lon="15.730147">
				<ele>1290.000000</ele>
			</trkpt>
			<trkpt lat="50.741683" lon="15.730111">
				<ele>1291.000000</ele>
			</trkpt>
			<trkpt lat="50.741689" lon="15.730084">
				<ele>1292.000000</ele>
			</trkpt>
			<trkpt lat="50.741683" lon="15.730067">
				<ele>1292.000000</ele>
			</trkpt>
			<trkpt lat="50.741677" lon="15.730067">
				<ele>1293.000000</ele>
			</trkpt>
			<trkpt lat="50.741604" lon="15.730067">
				<ele>1295.000000</ele>
			</trkpt>
			<trkpt lat="50.741552" lon="15.730067">
				<ele>1297.000000</ele>
			</trkpt>
			<trkpt lat="50.741518" lon="15.730031">
				<ele>1298.000000</ele>
			</trkpt>
			<trkpt lat="50.741506" lon="15.730031">
				<ele>1298.000000</ele>
			</trkpt>
			<trkpt lat="50.741467" lon="15.730058">
				<ele>1300.000000</ele>
			</trkpt>
			<trkpt lat="50.741410" lon="15.730067">
				<ele>1302.000000</ele>
			</trkpt>
			<trkpt lat="50.741364" lon="15.730058">
				<ele>1304.000000</ele>
			</trkpt>
			<trkpt lat="50.741342" lon="15.730040">
				<ele>1305.000000</ele>
			</trkpt>
			<trkpt lat="50.741319" lon="15.730031">
				<ele>1306.000000</ele>
			</trkpt>
			<trkpt lat="50.741291" lon="15.730040">
				<ele>1307.000000</ele>
			</trkpt>
			<trkpt lat="50.741279" lon="15.730031">
				<ele>1308.000000</ele>
			</trkpt>
			<trkpt lat="50.741262" lon="15.729985">
				<ele>1309.000000</ele>
			</trkpt>
			<trkpt lat="50.741256" lon="15.729950">
				<ele>1310.000000</ele>
			</trkpt>
			<trkpt lat="50.741268" lon="15.729914">
				<ele>1311.000000</ele>
			</trkpt>
			<trkpt lat="50.741297" lon="15.729868">
				<ele>1312.000000</ele>
			</trkpt>
			<trkpt lat="50.741398" lon="15.729771">
				<ele>1316.000000</ele>
			</trkpt>
			<trkpt lat="50.741450" lon="15.729734">
				<ele>1318.000000</ele>
			</trkpt>
			<trkpt lat="50.741484" lon="15.729707">
				<ele>1319.000000</ele>
			</trkpt>
			<trkpt lat="50.741535" lon="15.729644">
				<ele>1321.000000</ele>
			</trkpt>
			<trkpt lat="50.741535" lon="15.729627">
				<ele>1321.000000</ele>
			</trkpt>
			<trkpt lat="50.741518" lon="15.729564">
				<ele>1322.000000</ele>
			</trkpt>
			<trkpt lat="50.741518" lon="15.729528">
				<ele>1323.000000</ele>
			</trkpt>
			<trkpt lat="50.741592" lon="15.729392">
				<ele>1326.000000</ele>
			</trkpt>
			<trkpt lat="50.741598" lon="15.729357">
				<ele>1327.000000</ele>
			</trkpt>
			<trkpt lat="50.741598" lon="15.729348">
				<ele>1327.000000</ele>
			</trkpt>
			<trkpt lat="50.741592" lon="15.729339">
				<ele>1327.000000</ele>
			</trkpt>
			<trkpt lat="50.741541" lon="15.729348">
				<ele>1329.000000</ele>
			</trkpt>
			<trkpt lat="50.741398" lon="15.729375">
				<ele>1332.000000</ele>
			</trkpt>
			<trkpt lat="50.741382" lon="15.729384">
				<ele>1333.000000</ele>
			</trkpt>
			<trkpt lat="50.741370" lon="15.729375">
				<ele>1333.000000</ele>
			</trkpt>
			<trkpt lat="50.741376" lon="15.729348">
				<ele>1334.000000</ele>
			</trkpt>
			<trkpt lat="50.741410" lon="15.729241">
				<ele>1335.000000</ele>
			</trkpt>
			<trkpt lat="50.741427" lon="15.729213">
				<ele>1336.000000</ele>
			</trkpt>
			<trkpt lat="50.741433" lon="15.729186">
				<ele>1336.000000</ele>
			</trkpt>
			<trkpt lat="50.741427" lon="15.729178">
				<ele>1336.000000</ele>
			</trkpt>
			<trkpt lat="50.741421" lon="15.729178">
				<ele>1337.000000</ele>
			</trkpt>
			<trkpt lat="50.741410" lon="15.729178">
				<ele>1337.000000</ele>
			</trkpt>
			<trkpt lat="50.741370" lon="15.729213">
				<ele>1338.000000</ele>
			</trkpt>
			<trkpt lat="50.741359" lon="15.729205">
				<ele>1338.000000</ele>
			</trkpt>
			<trkpt lat="50.741364" lon="15.729159">
				<ele>1339.000000</ele>
			</trkpt>
			<trkpt lat="50.741376" lon="15.729132">
				<ele>1339.000000</ele>
			</trkpt>
			<trkpt lat="50.741370" lon="15.729105">
				<ele>1340.000000</ele>
			</trkpt>
			<trkpt lat="50.741364" lon="15.729105">
				<ele>1340.000000</ele>
			</trkpt>
			<trkpt lat="50.741354" lon="15.729115">
				<ele>1340.000000</ele>
			</trkpt>
			<trkpt lat="50.741336" lon="15.729132">
				<ele>1341.000000</ele>
			</trkpt>
			<trkpt lat="50.741245" lon="15.729258">
				<ele>1344.000000</ele>
			</trkpt>
			<trkpt lat="50.741240" lon="15.729241">
				<ele>1344.000000</ele>
			</trkpt>
			<trkpt lat="50.741240" lon="15.729159">
				<ele>1346.000000</ele>
			</trkpt>
			<trkpt lat="50.741234" lon="15.729142">
				<ele>1346.000000</ele>
			</trkpt>
			<trkpt lat="50.741217" lon="15.729151">
				<ele>1347.000000</ele>
			</trkpt>
			<trkpt lat="50.741194" lon="15.729178">
				<ele>1348.000000</ele>
			</trkpt>
			<trkpt lat="50.741171" lon="15.729222">
				<ele>1349.000000</ele>
			</trkpt>
			<trkpt lat="50.741109" lon="15.729249">
				<ele>1350.000000</ele>
			</trkpt>
			<trkpt lat="50.741069" lon="15.729285">
				<ele>1351.000000</ele>
			</trkpt>
			<trkpt lat="50.741058" lon="15.729276">
				<ele>1352.000000</ele>
			</trkpt>
			<trkpt lat="50.741063" lon="15.729168">
				<ele>1353.000000</ele>
			</trkpt>
			<trkpt lat="50.741058" lon="15.729142">
				<ele>1354.000000</ele>
			</trkpt>
			<trkpt lat="50.741046" lon="15.729142">
				<ele>1354.000000</ele>
			</trkpt>
			<trkpt lat="50.741035" lon="15.729151">
				<ele>1354.000000</ele>
			</trkpt>
			<trkpt lat="50.741018" lon="15.729195">
				<ele>1355.000000</ele>
			</trkpt>
			<trkpt lat="50.740995" lon="15.729213">
				<ele>1355.000000</ele>
			</trkpt>
			<trkpt lat="50.740961" lon="15.729222">
				<ele>1356.000000</ele>
			</trkpt>
			<trkpt lat="50.740921" lon="15.729241">
				<ele>1357.000000</ele>
			</trkpt>
			<trkpt lat="50.740887" lon="15.729285">
				<ele>1358.000000</ele>
			</trkpt>
			<trkpt lat="50.740802" lon="15.729357">
				<ele>1360.000000</ele>
			</trkpt>
			<trkpt lat="50.740609" lon="15.729545">
				<ele>1365.000000</ele>
			</trkpt>
			<trkpt lat="50.740523" lon="15.729581">
				<ele>1367.000000</ele>
			</trkpt>
			<trkpt lat="50.740460" lon="15.729627">
				<ele>1369.000000</ele>
			</trkpt>
			<trkpt lat="50.740398" lon="15.729654">
				<ele>1370.000000</ele>
			</trkpt>
			<trkpt lat="50.740347" lon="15.729671">
				<ele>1371.000000</ele>
			</trkpt>
			<trkpt lat="50.740205" lon="15.729752">
				<ele>1375.000000</ele>
			</trkpt>
			<trkpt lat="50.740159" lon="15.729761">
				<ele>1376.000000</ele>
			</trkpt>
			<trkpt lat="50.740074" lon="15.729797">
				<ele>1378.000000</ele>
			</trkpt>
			<trkpt lat="50.739972" lon="15.729824">
				<ele>1380.000000</ele>
			</trkpt>
			<trkpt lat="50.739864" lon="15.729860">
				<ele>1383.000000</ele>
			</trkpt>
			<trkpt lat="50.739829" lon="15.729860">
				<ele>1384.000000</ele>
			</trkpt>
			<trkpt lat="50.739796" lon="15.729824">
				<ele>1384.000000</ele>
			</trkpt>
			<trkpt lat="50.739762" lon="15.729788">
				<ele>1385.000000</ele>
			</trkpt>
			<trkpt lat="50.739727" lon="15.729725">
				<ele>1387.000000</ele>
			</trkpt>
			<trkpt lat="50.739642" lon="15.729635">
				<ele>1389.000000</ele>
			</trkpt>
			<trkpt lat="50.739620" lon="15.729564">
				<ele>1390.000000</ele>
			</trkpt>
			<trkpt lat="50.739602" lon="15.729501">
				<ele>1390.000000</ele>
			</trkpt>
			<trkpt lat="50.739556" lon="15.729474">
				<ele>1390.000000</ele>
			</trkpt>
			<trkpt lat="50.739517" lon="15.729438">
				<ele>1390.000000</ele>
			</trkpt>
			<trkpt lat="50.739381" lon="15.729294">
				<ele>1390.000000</ele>
			</trkpt>
			<trkpt lat="50.739284" lon="15.729195">
				<ele>1390.000000</ele>
			</trkpt>
			<trkpt lat="50.739221" lon="15.729088">
				<ele>1390.000000</ele>
			</trkpt>
			<trkpt lat="50.739170" lon="15.729213">
				<ele>1391.000000</ele>
			</trkpt>
			<trkpt lat="50.739182" lon="15.729186">
				<ele>1419.000000</ele>
			</trkpt>
			<trkpt lat="50.738721" lon="15.730497">
				<ele>1431.000000</ele>
			</trkpt>
			<trkpt lat="50.738653" lon="15.730660">
				<ele>1433.000000</ele>
			</trkpt>
			<trkpt lat="50.738613" lon="15.730713">
				<ele>1433.000000</ele>
			</trkpt>
			<trkpt lat="50.738567" lon="15.730767">
				<ele>1434.000000</ele>
			</trkpt>
			<trkpt lat="50.738209" lon="15.731100">
				<ele>1440.000000</ele>
			</trkpt>
			<trkpt lat="50.738141" lon="15.731172">
				<ele>1441.000000</ele>
			</trkpt>
			<trkpt lat="50.738107" lon="15.731226">
				<ele>1441.000000</ele>
			</trkpt>
			<trkpt lat="50.738079" lon="15.731289">
				<ele>1442.000000</ele>
			</trkpt>
			<trkpt lat="50.738062" lon="15.731369">
				<ele>1443.000000</ele>
			</trkpt>
			<trkpt lat="50.737874" lon="15.731503">
				<ele>1445.000000</ele>
			</trkpt>
			<trkpt lat="50.737817" lon="15.731566">
				<ele>1446.000000</ele>
			</trkpt>
			<trkpt lat="50.737760" lon="15.731648">
				<ele>1447.000000</ele>
			</trkpt>
			<trkpt lat="50.737692" lon="15.731765">
				<ele>1449.000000</ele>
			</trkpt>
			<trkpt lat="50.737601" lon="15.731872">
				<ele>1450.000000</ele>
			</trkpt>
			<trkpt lat="50.737271" lon="15.732294">
				<ele>1456.000000</ele>
			</trkpt>
			<trkpt lat="50.737021" lon="15.732573">
				<ele>1460.000000</ele>
			</trkpt>
			<trkpt lat="50.736959" lon="15.732654">
				<ele>1461.000000</ele>
			</trkpt>
			<trkpt lat="50.736902" lon="15.732771">
				<ele>1462.000000</ele>
			</trkpt>
			<trkpt lat="50.736839" lon="15.732923">
				<ele>1463.000000</ele>
			</trkpt>
			<trkpt lat="50.736828" lon="15.733023">
				<ele>1464.000000</ele>
			</trkpt>
			<trkpt lat="50.736822" lon="15.733471">
				<ele>1468.000000</ele>
			</trkpt>
			<trkpt lat="50.736817" lon="15.733516">
				<ele>1468.000000</ele>
			</trkpt>
			<trkpt lat="50.736800" lon="15.733534">
				<ele>1469.000000</ele>
			</trkpt>
			<trkpt lat="50.736737" lon="15.733489">
				<ele>1470.000000</ele>
			</trkpt>
			<trkpt lat="50.736714" lon="15.733489">
				<ele>1470.000000</ele>
			</trkpt>
			<trkpt lat="50.736714" lon="15.733516">
				<ele>1470.000000</ele>
			</trkpt>
			<trkpt lat="50.736725" lon="15.733956">
				<ele>1474.000000</ele>
			</trkpt>
			<trkpt lat="50.736748" lon="15.734522">
				<ele>1478.000000</ele>
			</trkpt>
			<trkpt lat="50.736766" lon="15.734765">
				<ele>1480.000000</ele>
			</trkpt>
			<trkpt lat="50.736766" lon="15.734792">
				<ele>1481.000000</ele>
			</trkpt>
			<trkpt lat="50.736743" lon="15.734792">
				<ele>1481.000000</ele>
			</trkpt>
			<trkpt lat="50.736629" lon="15.734631">
				<ele>1483.000000</ele>
			</trkpt>
			<trkpt lat="50.736583" lon="15.734603">
				<ele>1484.000000</ele>
			</trkpt>
			<trkpt lat="50.736532" lon="15.734558">
				<ele>1484.000000</ele>
			</trkpt>
			<trkpt lat="50.736316" lon="15.734442">
				<ele>1487.000000</ele>
			</trkpt>
			<trkpt lat="50.736174" lon="15.734396">
				<ele>1489.000000</ele>
			</trkpt>
			<trkpt lat="50.736151" lon="15.734396">
				<ele>1490.000000</ele>
			</trkpt>
			<trkpt lat="50.736135" lon="15.734442">
				<ele>1490.000000</ele>
			</trkpt>
			<trkpt lat="50.736129" lon="15.734495">
				<ele>1491.000000</ele>
			</trkpt>
			<trkpt lat="50.736151" lon="15.734568">
				<ele>1493.000000</ele>
			</trkpt>
			<trkpt lat="50.736225" lon="15.734702">
				<ele>1497.000000</ele>
			</trkpt>
			<trkpt lat="50.736277" lon="15.734845">
				<ele>1500.000000</ele>
			</trkpt>
			<trkpt lat="50.736322" lon="15.734981">
				<ele>1504.000000</ele>
			</trkpt>
			<trkpt lat="50.736339" lon="15.735052">
				<ele>1506.000000</ele>
			</trkpt>
			<trkpt lat="50.736345" lon="15.735142">
				<ele>1508.000000</ele>
			</trkpt>
			<trkpt lat="50.736345" lon="15.735394">
				<ele>1513.000000</ele>
			</trkpt>
			<trkpt lat="50.736345" lon="15.735761">
				<ele>1521.000000</ele>
			</trkpt>
			<trkpt lat="50.736345" lon="15.735780">
				<ele>1522.000000</ele>
			</trkpt>
			<trkpt lat="50.736333" lon="15.735789">
				<ele>1522.000000</ele>
			</trkpt>
			<trkpt lat="50.736288" lon="15.735753">
				<ele>1524.000000</ele>
			</trkpt>
			<trkpt lat="50.736271" lon="15.735744">
				<ele>1525.000000</ele>
			</trkpt>
			<trkpt lat="50.736254" lon="15.735761">
				<ele>1525.000000</ele>
			</trkpt>
			<trkpt lat="50.736243" lon="15.735807">
				<ele>1526.000000</ele>
			</trkpt>
			<trkpt lat="50.736243" lon="15.735914">
				<ele>1529.000000</ele>
			</trkpt>
			<trkpt lat="50.736271" lon="15.736157">
				<ele>1534.000000</ele>
			</trkpt>
			<trkpt lat="50.736294" lon="15.736256">
				<ele>1536.000000</ele>
			</trkpt>
			<trkpt lat="50.736356" lon="15.736499">
				<ele>1540.000000</ele>
			</trkpt>
			<trkpt lat="50.736418" lon="15.736768">
				<ele>1544.000000</ele>
			</trkpt>
			<trkpt lat="50.736452" lon="15.737029">
				<ele>1548.000000</ele>
			</trkpt>
			<trkpt lat="50.736475" lon="15.737308">
				<ele>1552.000000</ele>
			</trkpt>
			<trkpt lat="50.736475" lon="15.737451">
				<ele>1554.000000</ele>
			</trkpt>
			<trkpt lat="50.736459" lon="15.737595">
				<ele>1556.000000</ele>
			</trkpt>
			<trkpt lat="50.736430" lon="15.737918">
				<ele>1561.000000</ele>
			</trkpt>
			<trkpt lat="50.736424" lon="15.738304">
				<ele>1567.000000</ele>
			</trkpt>
			<trkpt lat="50.736424" lon="15.738501">
				<ele>1570.000000</ele>
			</trkpt>
			<trkpt lat="50.736396" lon="15.738870">
				<ele>1575.000000</ele>
			</trkpt>
			<trkpt lat="50.736339" lon="15.739176">
				<ele>1580.000000</ele>
			</trkpt>
			<trkpt lat="50.736310" lon="15.739337">
				<ele>1582.000000</ele>
			</trkpt>
			<trkpt lat="50.736299" lon="15.739373">
				<ele>1583.000000</ele>
			</trkpt>
			<trkpt lat="50.736277" lon="15.739392">
				<ele>1584.000000</ele>
			</trkpt>
			<trkpt lat="50.736191" lon="15.739436">
				<ele>1586.000000</ele>
			</trkpt>
			<trkpt lat="50.736106" lon="15.739489">
				<ele>1588.000000</ele>
			</trkpt>
			<trkpt lat="50.736015" lon="15.739579">
				<ele>1596.000000</ele>
			</trkpt>
			<trkpt lat="50.736015" lon="15.739579">
				<ele>1596.000000</ele>
			</trkpt>
			<trkpt lat="50.736106" lon="15.739489">
				<ele>1588.000000</ele>
			</trkpt>
			<trkpt lat="50.736117" lon="15.739535">
				<ele>1600.000000</ele>
			</trkpt>
			<trkpt lat="50.736140" lon="15.739903">
				<ele>1600.000000</ele>
			</trkpt>
			<trkpt lat="50.736145" lon="15.740155">
				<ele>1600.000000</ele>
			</trkpt>
			<trkpt lat="50.736151" lon="15.740137">
				<ele>1597.000000</ele>
			</trkpt>
			<trkpt lat="50.736197" lon="15.740298">
				<ele>1600.000000</ele>
			</trkpt>
			<trkpt lat="50.736208" lon="15.740325">
				<ele>1600.000000</ele>
			</trkpt>
			<trkpt lat="50.736225" lon="15.740344">
				<ele>1599.000000</ele>
			</trkpt>
			<trkpt lat="50.736294" lon="15.740371">
				<ele>1598.000000</ele>
			</trkpt>
			<trkpt lat="50.736396" lon="15.740371">
				<ele>1595.000000</ele>
			</trkpt>
			<trkpt lat="50.736430" lon="15.740388">
				<ele>1595.000000</ele>
			</trkpt>
			<trkpt lat="50.736504" lon="15.740469">
				<ele>1593.000000</ele>
			</trkpt>
			<trkpt lat="50.736481" lon="15.740667">
				<ele>1590.000000</ele>
			</trkpt>
			<trkpt lat="50.736464" lon="15.740784">
				<ele>1588.000000</ele>
			</trkpt>
			<trkpt lat="50.736436" lon="15.740883">
				<ele>1587.000000</ele>
			</trkpt>
			<trkpt lat="50.736402" lon="15.740954">
				<ele>1585.000000</ele>
			</trkpt>
			<trkpt lat="50.736282" lon="15.741089">
				<ele>1583.000000</ele>
			</trkpt>
			<trkpt lat="50.736145" lon="15.741233">
				<ele>1580.000000</ele>
			</trkpt>
			<trkpt lat="50.736004" lon="15.741340">
				<ele>1577.000000</ele>
			</trkpt>
			<trkpt lat="50.735458" lon="15.741717">
				<ele>1567.000000</ele>
			</trkpt>
			<trkpt lat="50.735333" lon="15.741816">
				<ele>1564.000000</ele>
			</trkpt>
			<trkpt lat="50.735270" lon="15.741870">
				<ele>1563.000000</ele>
			</trkpt>
			<trkpt lat="50.735241" lon="15.741925">
				<ele>1562.000000</ele>
			</trkpt>
			<trkpt lat="50.735236" lon="15.741969">
				<ele>1562.000000</ele>
			</trkpt>
			<trkpt lat="50.735225" lon="15.742005">
				<ele>1562.000000</ele>
			</trkpt>
			<trkpt lat="50.735225" lon="15.742068">
				<ele>1561.000000</ele>
			</trkpt>
			<trkpt lat="50.735259" lon="15.742176">
				<ele>1560.000000</ele>
			</trkpt>
			<trkpt lat="50.735321" lon="15.742266">
				<ele>1559.000000</ele>
			</trkpt>
			<trkpt lat="50.735401" lon="15.742355">
				<ele>1557.000000</ele>
			</trkpt>
			<trkpt lat="50.735509" lon="15.742409">
				<ele>1556.000000</ele>
			</trkpt>
			<trkpt lat="50.735725" lon="15.742553">
				<ele>1552.000000</ele>
			</trkpt>
			<trkpt lat="50.736254" lon="15.742921">
				<ele>1544.000000</ele>
			</trkpt>
			<trkpt lat="50.736833" lon="15.743254">
				<ele>1535.000000</ele>
			</trkpt>
			<trkpt lat="50.737004" lon="15.743325">
				<ele>1532.000000</ele>
			</trkpt>
			<trkpt lat="50.737140" lon="15.743344">
				<ele>1530.000000</ele>
			</trkpt>
			<trkpt lat="50.737544" lon="15.743353">
				<ele>1525.000000</ele>
			</trkpt>
			<trkpt lat="50.738096" lon="15.743334">
				<ele>1518.000000</ele>
			</trkpt>
			<trkpt lat="50.738175" lon="15.743434">
				<ele>1516.000000</ele>
			</trkpt>
			<trkpt lat="50.738209" lon="15.743478">
				<ele>1514.000000</ele>
			</trkpt>
			<trkpt lat="50.738244" lon="15.743487">
				<ele>1513.000000</ele>
			</trkpt>
			<trkpt lat="50.738283" lon="15.743505">
				<ele>1512.000000</ele>
			</trkpt>
			<trkpt lat="50.738301" lon="15.743550">
				<ele>1511.000000</ele>
			</trkpt>
			<trkpt lat="50.738351" lon="15.743730">
				<ele>1507.000000</ele>
			</trkpt>
			<trkpt lat="50.738465" lon="15.744026">
				<ele>1499.000000</ele>
			</trkpt>
			<trkpt lat="50.738511" lon="15.744170">
				<ele>1496.000000</ele>
			</trkpt>
			<trkpt lat="50.738545" lon="15.744340">
				<ele>1492.000000</ele>
			</trkpt>
			<trkpt lat="50.738562" lon="15.744413">
				<ele>1490.000000</ele>
			</trkpt>
			<trkpt lat="50.738602" lon="15.744457">
				<ele>1489.000000</ele>
			</trkpt>
			<trkpt lat="50.738642" lon="15.744485">
				<ele>1488.000000</ele>
			</trkpt>
			<trkpt lat="50.738681" lon="15.744503">
				<ele>1488.000000</ele>
			</trkpt>
			<trkpt lat="50.738687" lon="15.744529">
				<ele>1487.000000</ele>
			</trkpt>
			<trkpt lat="50.738687" lon="15.744602">
				<ele>1487.000000</ele>
			</trkpt>
			<trkpt lat="50.738698" lon="15.744655">
				<ele>1486.000000</ele>
			</trkpt>
			<trkpt lat="50.738721" lon="15.744718">
				<ele>1485.000000</ele>
			</trkpt>
			<trkpt lat="50.738761" lon="15.744772">
				<ele>1484.000000</ele>
			</trkpt>
			<trkpt lat="50.738863" lon="15.744889">
				<ele>1481.000000</ele>
			</trkpt>
			<trkpt lat="50.738925" lon="15.745005">
				<ele>1479.000000</ele>
			</trkpt>
			<trkpt lat="50.738971" lon="15.745105">
				<ele>1477.000000</ele>
			</trkpt>
			<trkpt lat="50.738989" lon="15.745231">
				<ele>1475.000000</ele>
			</trkpt>
			<trkpt lat="50.739005" lon="15.745347">
				<ele>1473.000000</ele>
			</trkpt>
			<trkpt lat="50.739051" lon="15.745472">
				<ele>1471.000000</ele>
			</trkpt>
			<trkpt lat="50.739239" lon="15.745958">
				<ele>1463.000000</ele>
			</trkpt>
			<trkpt lat="50.739381" lon="15.746273">
				<ele>1457.000000</ele>
			</trkpt>
			<trkpt lat="50.739420" lon="15.746353">
				<ele>1456.000000</ele>
			</trkpt>
			<trkpt lat="50.739528" lon="15.746524">
				<ele>1454.000000</ele>
			</trkpt>
			<trkpt lat="50.739568" lon="15.746587">
				<ele>1454.000000</ele>
			</trkpt>
			<trkpt lat="50.739585" lon="15.746667">
				<ele>1454.000000</ele>
			</trkpt>
			<trkpt lat="50.739608" lon="15.746766">
				<ele>1453.000000</ele>
			</trkpt>
			<trkpt lat="50.739642" lon="15.746856">
				<ele>1453.000000</ele>
			</trkpt>
			<trkpt lat="50.739750" lon="15.747009">
				<ele>1452.000000</ele>
			</trkpt>
			<trkpt lat="50.739807" lon="15.747099">
				<ele>1452.000000</ele>
			</trkpt>
			<trkpt lat="50.739841" lon="15.747197">
				<ele>1451.000000</ele>
			</trkpt>
			<trkpt lat="50.739966" lon="15.747611">
				<ele>1450.000000</ele>
			</trkpt>
			<trkpt lat="50.740177" lon="15.748212">
				<ele>1447.000000</ele>
			</trkpt>
			<trkpt lat="50.740228" lon="15.748392">
				<ele>1446.000000</ele>
			</trkpt>
			<trkpt lat="50.740273" lon="15.748581">
				<ele>1446.000000</ele>
			</trkpt>
			<trkpt lat="50.740296" lon="15.748778">
				<ele>1445.000000</ele>
			</trkpt>
			<trkpt lat="50.740313" lon="15.748931">
				<ele>1444.000000</ele>
			</trkpt>
			<trkpt lat="50.740313" lon="15.749191">
				<ele>1444.000000</ele>
			</trkpt>
			<trkpt lat="50.740330" lon="15.749344">
				<ele>1443.000000</ele>
			</trkpt>
			<trkpt lat="50.740358" lon="15.749516">
				<ele>1442.000000</ele>
			</trkpt>
			<trkpt lat="50.740432" lon="15.749875">
				<ele>1441.000000</ele>
			</trkpt>
			<trkpt lat="50.740506" lon="15.750116">
				<ele>1440.000000</ele>
			</trkpt>
			<trkpt lat="50.740609" lon="15.750395">
				<ele>1439.000000</ele>
			</trkpt>
			<trkpt lat="50.740666" lon="15.750584">
				<ele>1438.000000</ele>
			</trkpt>
			<trkpt lat="50.740705" lon="15.750755">
				<ele>1437.000000</ele>
			</trkpt>
			<trkpt lat="50.740779" lon="15.750952">
				<ele>1437.000000</ele>
			</trkpt>
			<trkpt lat="50.741006" lon="15.751581">
				<ele>1434.000000</ele>
			</trkpt>
			<trkpt lat="50.741166" lon="15.752066">
				<ele>1432.000000</ele>
			</trkpt>
			<trkpt lat="50.741262" lon="15.752336">
				<ele>1431.000000</ele>
			</trkpt>
			<trkpt lat="50.741455" lon="15.752965">
				<ele>1429.000000</ele>
			</trkpt>
			<trkpt lat="50.741518" lon="15.753135">
				<ele>1428.000000</ele>
			</trkpt>
			<trkpt lat="50.741535" lon="15.753225">
				<ele>1428.000000</ele>
			</trkpt>
			<trkpt lat="50.741609" lon="15.753477">
				<ele>1427.000000</ele>
			</trkpt>
			<trkpt lat="50.741643" lon="15.753621">
				<ele>1426.000000</ele>
			</trkpt>
			<trkpt lat="50.741671" lon="15.753701">
				<ele>1426.000000</ele>
			</trkpt>
			<trkpt lat="50.741723" lon="15.753863">
				<ele>1425.000000</ele>
			</trkpt>
			<trkpt lat="50.741820" lon="15.754133">
				<ele>1424.000000</ele>
			</trkpt>
			<trkpt lat="50.741916" lon="15.754500">
				<ele>1423.000000</ele>
			</trkpt>
			<trkpt lat="50.741962" lon="15.754699">
				<ele>1422.000000</ele>
			</trkpt>
			<trkpt lat="50.741995" lon="15.754797">
				<ele>1421.000000</ele>
			</trkpt>
			<trkpt lat="50.742041" lon="15.754932">
				<ele>1421.000000</ele>
			</trkpt>
			<trkpt lat="50.742093" lon="15.755076">
				<ele>1420.000000</ele>
			</trkpt>
			<trkpt lat="50.742155" lon="15.755229">
				<ele>1420.000000</ele>
			</trkpt>
			<trkpt lat="50.742183" lon="15.755300">
				<ele>1420.000000</ele>
			</trkpt>
			<trkpt lat="50.742217" lon="15.755390">
				<ele>1420.000000</ele>
			</trkpt>
			<trkpt lat="50.742257" lon="15.755543">
				<ele>1420.000000</ele>
			</trkpt>
			<trkpt lat="50.742286" lon="15.755623">
				<ele>1420.000000</ele>
			</trkpt>
			<trkpt lat="50.742337" lon="15.755768">
				<ele>1419.000000</ele>
			</trkpt>
			<trkpt lat="50.742445" lon="15.756045">
				<ele>1416.000000</ele>
			</trkpt>
			<trkpt lat="50.742473" lon="15.756154">
				<ele>1416.000000</ele>
			</trkpt>
			<trkpt lat="50.742507" lon="15.756252">
				<ele>1415.000000</ele>
			</trkpt>
			<trkpt lat="50.742575" lon="15.756468">
				<ele>1413.000000</ele>
			</trkpt>
			<trkpt lat="50.742632" lon="15.756567">
				<ele>1412.000000</ele>
			</trkpt>
			<trkpt lat="50.742666" lon="15.756711">
				<ele>1411.000000</ele>
			</trkpt>
			<trkpt lat="50.742701" lon="15.756783">
				<ele>1410.000000</ele>
			</trkpt>
			<trkpt lat="50.742746" lon="15.756953">
				<ele>1408.000000</ele>
			</trkpt>
			<trkpt lat="50.742797" lon="15.757114">
				<ele>1407.000000</ele>
			</trkpt>
			<trkpt lat="50.742854" lon="15.757223">
				<ele>1406.000000</ele>
			</trkpt>
			<trkpt lat="50.742922" lon="15.757321">
				<ele>1405.000000</ele>
			</trkpt>
			<trkpt lat="50.742939" lon="15.757384">
				<ele>1404.000000</ele>
			</trkpt>
			<trkpt lat="50.742951" lon="15.757439">
				<ele>1404.000000</ele>
			</trkpt>
			<trkpt lat="50.742951" lon="15.757529">
				<ele>1403.000000</ele>
			</trkpt>
			<trkpt lat="50.742945" lon="15.757636">
				<ele>1402.000000</ele>
			</trkpt>
			<trkpt lat="50.742956" lon="15.757797">
				<ele>1401.000000</ele>
			</trkpt>
			<trkpt lat="50.742956" lon="15.757825">
				<ele>1401.000000</ele>
			</trkpt>
			<trkpt lat="50.742928" lon="15.757860">
				<ele>1401.000000</ele>
			</trkpt>
			<trkpt lat="50.742917" lon="15.757879">
				<ele>1400.000000</ele>
			</trkpt>
			<trkpt lat="50.742917" lon="15.757906">
				<ele>1400.000000</ele>
			</trkpt>
			<trkpt lat="50.742928" lon="15.757959">
				<ele>1400.000000</ele>
			</trkpt>
			<trkpt lat="50.743007" lon="15.758130">
				<ele>1397.000000</ele>
			</trkpt>
			<trkpt lat="50.743059" lon="15.758309">
				<ele>1395.000000</ele>
			</trkpt>
			<trkpt lat="50.743121" lon="15.758481">
				<ele>1395.000000</ele>
			</trkpt>
			<trkpt lat="50.743149" lon="15.758543">
				<ele>1395.000000</ele>
			</trkpt>
			<trkpt lat="50.743183" lon="15.758606">
				<ele>1395.000000</ele>
			</trkpt>
			<trkpt lat="50.743326" lon="15.758758">
				<ele>1394.000000</ele>
			</trkpt>
			<trkpt lat="50.743371" lon="15.758822">
				<ele>1394.000000</ele>
			</trkpt>
			<trkpt lat="50.743388" lon="15.758921">
				<ele>1394.000000</ele>
			</trkpt>
			<trkpt lat="50.743440" lon="15.759172">
				<ele>1393.000000</ele>
			</trkpt>
			<trkpt lat="50.743485" lon="15.759414">
				<ele>1393.000000</ele>
			</trkpt>
			<trkpt lat="50.743536" lon="15.759674">
				<ele>1393.000000</ele>
			</trkpt>
			<trkpt lat="50.743582" lon="15.759890">
				<ele>1392.000000</ele>
			</trkpt>
			<trkpt lat="50.743747" lon="15.760942">
				<ele>1391.000000</ele>
			</trkpt>
			<trkpt lat="50.743849" lon="15.761561">
				<ele>1390.000000</ele>
			</trkpt>
			<trkpt lat="50.743855" lon="15.761661">
				<ele>1390.000000</ele>
			</trkpt>
			<trkpt lat="50.743855" lon="15.761724">
				<ele>1390.000000</ele>
			</trkpt>
			<trkpt lat="50.743855" lon="15.761831">
				<ele>1390.000000</ele>
			</trkpt>
			<trkpt lat="50.743855" lon="15.761877">
				<ele>1390.000000</ele>
			</trkpt>
			<trkpt lat="50.743843" lon="15.762055">
				<ele>1389.000000</ele>
			</trkpt>
			<trkpt lat="50.743832" lon="15.762324">
				<ele>1389.000000</ele>
			</trkpt>
			<trkpt lat="50.743832" lon="15.762414">
				<ele>1389.000000</ele>
			</trkpt>
			<trkpt lat="50.743826" lon="15.762540">
				<ele>1389.000000</ele>
			</trkpt>
			<trkpt lat="50.743832" lon="15.762630">
				<ele>1388.000000</ele>
			</trkpt>
			<trkpt lat="50.743832" lon="15.762684">
				<ele>1388.000000</ele>
			</trkpt>
			<trkpt lat="50.743832" lon="15.762756">
				<ele>1388.000000</ele>
			</trkpt>
			<trkpt lat="50.743832" lon="15.762953">
				<ele>1388.000000</ele>
			</trkpt>
			<trkpt lat="50.743837" lon="15.763152">
				<ele>1388.000000</ele>
			</trkpt>
			<trkpt lat="50.743837" lon="15.763574">
				<ele>1387.000000</ele>
			</trkpt>
			<trkpt lat="50.743832" lon="15.763798">
				<ele>1387.000000</ele>
			</trkpt>
			<trkpt lat="50.743843" lon="15.763906">
				<ele>1387.000000</ele>
			</trkpt>
			<trkpt lat="50.743843" lon="15.763987">
				<ele>1387.000000</ele>
			</trkpt>
			<trkpt lat="50.743849" lon="15.764077">
				<ele>1386.000000</ele>
			</trkpt>
			<trkpt lat="50.743849" lon="15.764202">
				<ele>1386.000000</ele>
			</trkpt>
			<trkpt lat="50.743837" lon="15.764355">
				<ele>1386.000000</ele>
			</trkpt>
			<trkpt lat="50.743849" lon="15.764454">
				<ele>1386.000000</ele>
			</trkpt>
			<trkpt lat="50.743849" lon="15.764527">
				<ele>1386.000000</ele>
			</trkpt>
			<trkpt lat="50.743849" lon="15.764598">
				<ele>1386.000000</ele>
			</trkpt>
			<trkpt lat="50.743843" lon="15.764705">
				<ele>1386.000000</ele>
			</trkpt>
			<trkpt lat="50.743843" lon="15.764921">
				<ele>1385.000000</ele>
			</trkpt>
			<trkpt lat="50.743832" lon="15.765137">
				<ele>1386.000000</ele>
			</trkpt>
			<trkpt lat="50.743832" lon="15.765209">
				<ele>1386.000000</ele>
			</trkpt>
			<trkpt lat="50.743832" lon="15.765244">
				<ele>1386.000000</ele>
			</trkpt>
			<trkpt lat="50.743843" lon="15.765290">
				<ele>1387.000000</ele>
			</trkpt>
			<trkpt lat="50.743843" lon="15.765334">
				<ele>1387.000000</ele>
			</trkpt>
			<trkpt lat="50.743832" lon="15.765406">
				<ele>1388.000000</ele>
			</trkpt>
			<trkpt lat="50.743832" lon="15.765514">
				<ele>1388.000000</ele>
			</trkpt>
			<trkpt lat="50.743814" lon="15.765685">
				<ele>1390.000000</ele>
			</trkpt>
			<trkpt lat="50.743803" lon="15.765873">
				<ele>1391.000000</ele>
			</trkpt>
			<trkpt lat="50.743792" lon="15.766026">
				<ele>1392.000000</ele>
			</trkpt>
			<trkpt lat="50.743780" lon="15.766080">
				<ele>1393.000000</ele>
			</trkpt>
			<trkpt lat="50.743780" lon="15.766143">
				<ele>1393.000000</ele>
			</trkpt>
			<trkpt lat="50.743780" lon="15.766242">
				<ele>1394.000000</ele>
			</trkpt>
			<trkpt lat="50.743775" lon="15.766322">
				<ele>1394.000000</ele>
			</trkpt>
			<trkpt lat="50.743752" lon="15.766466">
				<ele>1395.000000</ele>
			</trkpt>
			<trkpt lat="50.743752" lon="15.766611">
				<ele>1396.000000</ele>
			</trkpt>
			<trkpt lat="50.743735" lon="15.766762">
				<ele>1398.000000</ele>
			</trkpt>
			<trkpt lat="50.743724" lon="15.766879">
				<ele>1398.000000</ele>
			</trkpt>
			<trkpt lat="50.743713" lon="15.767005">
				<ele>1399.000000</ele>
			</trkpt>
			<trkpt lat="50.743695" lon="15.767158">
				<ele>1400.000000</ele>
			</trkpt>
			<trkpt lat="50.743684" lon="15.767230">
				<ele>1400.000000</ele>
			</trkpt>
			<trkpt lat="50.743667" lon="15.767284">
				<ele>1401.000000</ele>
			</trkpt>
			<trkpt lat="50.743593" lon="15.767427">
				<ele>1401.000000</ele>
			</trkpt>
			<trkpt lat="50.743474" lon="15.767697">
				<ele>1403.000000</ele>
			</trkpt>
			<trkpt lat="50.743440" lon="15.767804">
				<ele>1403.000000</ele>
			</trkpt>
			<trkpt lat="50.743422" lon="15.767877">
				<ele>1403.000000</ele>
			</trkpt>
			<trkpt lat="50.743366" lon="15.768074">
				<ele>1404.000000</ele>
			</trkpt>
			<trkpt lat="50.743354" lon="15.768164">
				<ele>1405.000000</ele>
			</trkpt>
			<trkpt lat="50.743348" lon="15.768219">
				<ele>1405.000000</ele>
			</trkpt>
			<trkpt lat="50.743320" lon="15.768263">
				<ele>1405.000000</ele>
			</trkpt>
			<trkpt lat="50.743309" lon="15.768290">
				<ele>1405.000000</ele>
			</trkpt>
			<trkpt lat="50.743291" lon="15.768343">
				<ele>1405.000000</ele>
			</trkpt>
			<trkpt lat="50.743252" lon="15.768460">
				<ele>1406.000000</ele>
			</trkpt>
			<trkpt lat="50.743218" lon="15.768523">
				<ele>1406.000000</ele>
			</trkpt>
			<trkpt lat="50.743190" lon="15.768550">
				<ele>1406.000000</ele>
			</trkpt>
			<trkpt lat="50.743183" lon="15.768569">
				<ele>1406.000000</ele>
			</trkpt>
			<trkpt lat="50.743172" lon="15.768586">
				<ele>1406.000000</ele>
			</trkpt>
			<trkpt lat="50.743161" lon="15.768640">
				<ele>1407.000000</ele>
			</trkpt>
			<trkpt lat="50.743138" lon="15.768685">
				<ele>1407.000000</ele>
			</trkpt>
			<trkpt lat="50.742962" lon="15.768991">
				<ele>1408.000000</ele>
			</trkpt>
			<trkpt lat="50.742888" lon="15.769143">
				<ele>1409.000000</ele>
			</trkpt>
			<trkpt lat="50.742752" lon="15.769467">
				<ele>1410.000000</ele>
			</trkpt>
			<trkpt lat="50.742723" lon="15.769557">
				<ele>1410.000000</ele>
			</trkpt>
			<trkpt lat="50.742706" lon="15.769664">
				<ele>1410.000000</ele>
			</trkpt>
			<trkpt lat="50.742695" lon="15.769827">
				<ele>1410.000000</ele>
			</trkpt>
			<trkpt lat="50.742649" lon="15.769978">
				<ele>1409.000000</ele>
			</trkpt>
			<trkpt lat="50.742649" lon="15.770033">
				<ele>1408.000000</ele>
			</trkpt>
			<trkpt lat="50.742649" lon="15.770087">
				<ele>1408.000000</ele>
			</trkpt>
			<trkpt lat="50.742660" lon="15.770131">
				<ele>1407.000000</ele>
			</trkpt>
			<trkpt lat="50.742660" lon="15.770177">
				<ele>1407.000000</ele>
			</trkpt>
			<trkpt lat="50.742649" lon="15.770221">
				<ele>1406.000000</ele>
			</trkpt>
			<trkpt lat="50.742660" lon="15.770248">
				<ele>1406.000000</ele>
			</trkpt>
			<trkpt lat="50.742678" lon="15.770293">
				<ele>1405.000000</ele>
			</trkpt>
			<trkpt lat="50.742678" lon="15.770347">
				<ele>1404.000000</ele>
			</trkpt>
			<trkpt lat="50.742666" lon="15.770427">
				<ele>1404.000000</ele>
			</trkpt>
			<trkpt lat="50.742649" lon="15.770473">
				<ele>1403.000000</ele>
			</trkpt>
			<trkpt lat="50.742638" lon="15.770500">
				<ele>1403.000000</ele>
			</trkpt>
			<trkpt lat="50.742626" lon="15.770527">
				<ele>1402.000000</ele>
			</trkpt>
			<trkpt lat="50.742638" lon="15.770617">
				<ele>1401.000000</ele>
			</trkpt>
			<trkpt lat="50.742638" lon="15.770661">
				<ele>1401.000000</ele>
			</trkpt>
			<trkpt lat="50.742598" lon="15.770895">
				<ele>1396.000000</ele>
			</trkpt>
			<trkpt lat="50.742570" lon="15.771012">
				<ele>1394.000000</ele>
			</trkpt>
			<trkpt lat="50.742553" lon="15.771110">
				<ele>1392.000000</ele>
			</trkpt>
			<trkpt lat="50.742518" lon="15.771209">
				<ele>1390.000000</ele>
			</trkpt>
			<trkpt lat="50.742507" lon="15.771263">
				<ele>1389.000000</ele>
			</trkpt>
			<trkpt lat="50.742507" lon="15.771317">
				<ele>1388.000000</ele>
			</trkpt>
			<trkpt lat="50.742496" lon="15.771389">
				<ele>1387.000000</ele>
			</trkpt>
			<trkpt lat="50.742445" lon="15.771578">
				<ele>1383.000000</ele>
			</trkpt>
			<trkpt lat="50.742422" lon="15.771649">
				<ele>1381.000000</ele>
			</trkpt>
			<trkpt lat="50.742399" lon="15.771731">
				<ele>1380.000000</ele>
			</trkpt>
			<trkpt lat="50.742371" lon="15.771802">
				<ele>1377.000000</ele>
			</trkpt>
			<trkpt lat="50.742371" lon="15.771829">
				<ele>1377.000000</ele>
			</trkpt>
			<trkpt lat="50.742359" lon="15.771946">
				<ele>1374.000000</ele>
			</trkpt>
			<trkpt lat="50.742320" lon="15.772171">
				<ele>1368.000000</ele>
			</trkpt>
			<trkpt lat="50.742314" lon="15.772251">
				<ele>1367.000000</ele>
			</trkpt>
			<trkpt lat="50.742302" lon="15.772297">
				<ele>1365.000000</ele>
			</trkpt>
			<trkpt lat="50.742286" lon="15.772351">
				<ele>1364.000000</ele>
			</trkpt>
			<trkpt lat="50.742286" lon="15.772422">
				<ele>1362.000000</ele>
			</trkpt>
			<trkpt lat="50.742302" lon="15.772521">
				<ele>1360.000000</ele>
			</trkpt>
			<trkpt lat="50.742291" lon="15.772611">
				<ele>1358.000000</ele>
			</trkpt>
			<trkpt lat="50.742257" lon="15.772844">
				<ele>1353.000000</ele>
			</trkpt>
			<trkpt lat="50.742223" lon="15.773087">
				<ele>1347.000000</ele>
			</trkpt>
			<trkpt lat="50.742217" lon="15.773177">
				<ele>1345.000000</ele>
			</trkpt>
			<trkpt lat="50.742223" lon="15.773249">
				<ele>1343.000000</ele>
			</trkpt>
			<trkpt lat="50.742251" lon="15.773580">
				<ele>1336.000000</ele>
			</trkpt>
			<trkpt lat="50.742274" lon="15.773815">
				<ele>1330.000000</ele>
			</trkpt>
			<trkpt lat="50.742291" lon="15.773922">
				<ele>1328.000000</ele>
			</trkpt>
			<trkpt lat="50.742308" lon="15.774085">
				<ele>1325.000000</ele>
			</trkpt>
			<trkpt lat="50.742320" lon="15.774209">
				<ele>1322.000000</ele>
			</trkpt>
			<trkpt lat="50.742337" lon="15.774282">
				<ele>1321.000000</ele>
			</trkpt>
			<trkpt lat="50.742343" lon="15.774335">
				<ele>1319.000000</ele>
			</trkpt>
			<trkpt lat="50.742343" lon="15.774381">
				<ele>1319.000000</ele>
			</trkpt>
			<trkpt lat="50.742354" lon="15.774452">
				<ele>1317.000000</ele>
			</trkpt>
			<trkpt lat="50.742388" lon="15.774622">
				<ele>1313.000000</ele>
			</trkpt>
			<trkpt lat="50.742388" lon="15.774731">
				<ele>1311.000000</ele>
			</trkpt>
			<trkpt lat="50.742382" lon="15.774875">
				<ele>1309.000000</ele>
			</trkpt>
			<trkpt lat="50.742394" lon="15.774991">
				<ele>1306.000000</ele>
			</trkpt>
			<trkpt lat="50.742428" lon="15.775207">
				<ele>1302.000000</ele>
			</trkpt>
			<trkpt lat="50.742428" lon="15.775278">
				<ele>1301.000000</ele>
			</trkpt>
			<trkpt lat="50.742416" lon="15.775333">
				<ele>1300.000000</ele>
			</trkpt>
			<trkpt lat="50.742343" lon="15.775638">
				<ele>1294.000000</ele>
			</trkpt>
			<trkpt lat="50.742280" lon="15.775926">
				<ele>1288.000000</ele>
			</trkpt>
			<trkpt lat="50.742223" lon="15.776079">
				<ele>1285.000000</ele>
			</trkpt>
			<trkpt lat="50.742189" lon="15.776159">
				<ele>1284.000000</ele>
			</trkpt>
			<trkpt lat="50.742132" lon="15.776320">
				<ele>1281.000000</ele>
			</trkpt>
			<trkpt lat="50.742047" lon="15.776590">
				<ele>1275.000000</ele>
			</trkpt>
			<trkpt lat="50.742013" lon="15.776698">
				<ele>1273.000000</ele>
			</trkpt>
			<trkpt lat="50.741985" lon="15.776851">
				<ele>1271.000000</ele>
			</trkpt>
			<trkpt lat="50.741995" lon="15.777012">
				<ele>1269.000000</ele>
			</trkpt>
			<trkpt lat="50.742007" lon="15.777183">
				<ele>1267.000000</ele>
			</trkpt>
			<trkpt lat="50.742036" lon="15.777362">
				<ele>1265.000000</ele>
			</trkpt>
			<trkpt lat="50.742098" lon="15.777651">
				<ele>1261.000000</ele>
			</trkpt>
			<trkpt lat="50.742115" lon="15.777804">
				<ele>1260.000000</ele>
			</trkpt>
			<trkpt lat="50.742109" lon="15.778018">
				<ele>1258.000000</ele>
			</trkpt>
			<trkpt lat="50.742093" lon="15.778288">
				<ele>1255.000000</ele>
			</trkpt>
			<trkpt lat="50.742064" lon="15.778540">
				<ele>1252.000000</ele>
			</trkpt>
			<trkpt lat="50.742143" lon="15.778970">
				<ele>1247.000000</ele>
			</trkpt>
			<trkpt lat="50.742183" lon="15.779142">
				<ele>1244.000000</ele>
			</trkpt>
			<trkpt lat="50.742240" lon="15.779295">
				<ele>1241.000000</ele>
			</trkpt>
			<trkpt lat="50.742308" lon="15.779429">
				<ele>1238.000000</ele>
			</trkpt>
			<trkpt lat="50.742462" lon="15.779654">
				<ele>1234.000000</ele>
			</trkpt>
			<trkpt lat="50.742632" lon="15.779896">
				<ele>1232.000000</ele>
			</trkpt>
			<trkpt lat="50.742712" lon="15.780040">
				<ele>1231.000000</ele>
			</trkpt>
			<trkpt lat="50.743126" lon="15.781010">
				<ele>1225.000000</ele>
			</trkpt>
			<trkpt lat="50.743366" lon="15.781522">
				<ele>1222.000000</ele>
			</trkpt>
			<trkpt lat="50.743513" lon="15.781872">
				<ele>1219.000000</ele>
			</trkpt>
			<trkpt lat="50.743871" lon="15.782572">
				<ele>1210.000000</ele>
			</trkpt>
			<trkpt lat="50.744502" lon="15.783884">
				<ele>1195.000000</ele>
			</trkpt>
			<trkpt lat="50.744997" lon="15.785025">
				<ele>1182.000000</ele>
			</trkpt>
			<trkpt lat="50.745315" lon="15.785727">
				<ele>1175.000000</ele>
			</trkpt>
			<trkpt lat="50.745679" lon="15.786454">
				<ele>1169.000000</ele>
			</trkpt>
			<trkpt lat="50.745679" lon="15.786454">
				<ele>1169.000000</ele>
			</trkpt>
			<trkpt lat="50.745679" lon="15.786454">
				<ele>1169.000000</ele>
			</trkpt>
			<trkpt lat="50.745691" lon="15.786507">
				<ele>1170.000000</ele>
			</trkpt>
			<trkpt lat="50.745747" lon="15.786454">
				<ele>1170.000000</ele>
			</trkpt>
			<trkpt lat="50.745884" lon="15.786337">
				<ele>1168.000000</ele>
			</trkpt>
			<trkpt lat="50.745907" lon="15.786320">
				<ele>1168.000000</ele>
			</trkpt>
			<trkpt lat="50.746072" lon="15.786247">
				<ele>1166.000000</ele>
			</trkpt>
			<trkpt lat="50.746173" lon="15.786203">
				<ele>1165.000000</ele>
			</trkpt>
			<trkpt lat="50.746230" lon="15.786184">
				<ele>1165.000000</ele>
			</trkpt>
			<trkpt lat="50.746270" lon="15.786184">
				<ele>1164.000000</ele>
			</trkpt>
			<trkpt lat="50.746327" lon="15.786184">
				<ele>1164.000000</ele>
			</trkpt>
			<trkpt lat="50.746367" lon="15.786167">
				<ele>1163.000000</ele>
			</trkpt>
			<trkpt lat="50.746441" lon="15.786140">
				<ele>1162.000000</ele>
			</trkpt>
			<trkpt lat="50.746503" lon="15.786094">
				<ele>1161.000000</ele>
			</trkpt>
			<trkpt lat="50.746646" lon="15.785924">
				<ele>1158.000000</ele>
			</trkpt>
			<trkpt lat="50.746736" lon="15.785817">
				<ele>1156.000000</ele>
			</trkpt>
			<trkpt lat="50.746861" lon="15.785699">
				<ele>1152.000000</ele>
			</trkpt>
			<trkpt lat="50.746947" lon="15.785601">
				<ele>1150.000000</ele>
			</trkpt>
			<trkpt lat="50.747009" lon="15.785520">
				<ele>1148.000000</ele>
			</trkpt>
			<trkpt lat="50.747072" lon="15.785457">
				<ele>1146.000000</ele>
			</trkpt>
			<trkpt lat="50.747185" lon="15.785286">
				<ele>1141.000000</ele>
			</trkpt>
			<trkpt lat="50.747254" lon="15.785151">
				<ele>1138.000000</ele>
			</trkpt>
			<trkpt lat="50.747305" lon="15.785008">
				<ele>1134.000000</ele>
			</trkpt>
			<trkpt lat="50.747350" lon="15.784936">
				<ele>1132.000000</ele>
			</trkpt>
			<trkpt lat="50.747538" lon="15.784639">
				<ele>1123.000000</ele>
			</trkpt>
			<trkpt lat="50.747566" lon="15.784532">
				<ele>1120.000000</ele>
			</trkpt>
			<trkpt lat="50.747617" lon="15.784289">
				<ele>1116.000000</ele>
			</trkpt>
			<trkpt lat="50.747697" lon="15.784109">
				<ele>1112.000000</ele>
			</trkpt>
			<trkpt lat="50.747777" lon="15.783867">
				<ele>1106.000000</ele>
			</trkpt>
			<trkpt lat="50.747867" lon="15.783696">
				<ele>1101.000000</ele>
			</trkpt>
			<trkpt lat="50.747924" lon="15.783525">
				<ele>1097.000000</ele>
			</trkpt>
			<trkpt lat="50.747993" lon="15.783274">
				<ele>1092.000000</ele>
			</trkpt>
			<trkpt lat="50.748009" lon="15.783220">
				<ele>1091.000000</ele>
			</trkpt>
			<trkpt lat="50.748050" lon="15.783201">
				<ele>1089.000000</ele>
			</trkpt>
			<trkpt lat="50.748072" lon="15.783211">
				<ele>1089.000000</ele>
			</trkpt>
			<trkpt lat="50.748140" lon="15.783291">
				<ele>1086.000000</ele>
			</trkpt>
			<trkpt lat="50.748197" lon="15.783373">
				<ele>1084.000000</ele>
			</trkpt>
			<trkpt lat="50.748214" lon="15.783391">
				<ele>1084.000000</ele>
			</trkpt>
			<trkpt lat="50.748231" lon="15.783381">
				<ele>1083.000000</ele>
			</trkpt>
			<trkpt lat="50.748243" lon="15.783373">
				<ele>1083.000000</ele>
			</trkpt>
			<trkpt lat="50.748248" lon="15.783354">
				<ele>1082.000000</ele>
			</trkpt>
			<trkpt lat="50.748248" lon="15.783264">
				<ele>1081.000000</ele>
			</trkpt>
			<trkpt lat="50.748254" lon="15.783049">
				<ele>1078.000000</ele>
			</trkpt>
			<trkpt lat="50.748266" lon="15.782725">
				<ele>1073.000000</ele>
			</trkpt>
			<trkpt lat="50.748277" lon="15.782681">
				<ele>1073.000000</ele>
			</trkpt>
			<trkpt lat="50.748317" lon="15.782672">
				<ele>1072.000000</ele>
			</trkpt>
			<trkpt lat="50.748368" lon="15.782752">
				<ele>1070.000000</ele>
			</trkpt>
			<trkpt lat="50.748453" lon="15.782977">
				<ele>1066.000000</ele>
			</trkpt>
			<trkpt lat="50.748549" lon="15.783247">
				<ele>1061.000000</ele>
			</trkpt>
			<trkpt lat="50.748601" lon="15.783525">
				<ele>1057.000000</ele>
			</trkpt>
			<trkpt lat="50.748618" lon="15.783687">
				<ele>1054.000000</ele>
			</trkpt>
			<trkpt lat="50.748652" lon="15.783857">
				<ele>1051.000000</ele>
			</trkpt>
			<trkpt lat="50.748691" lon="15.784091">
				<ele>1046.000000</ele>
			</trkpt>
			<trkpt lat="50.748709" lon="15.784136">
				<ele>1045.000000</ele>
			</trkpt>
			<trkpt lat="50.748737" lon="15.784119">
				<ele>1043.000000</ele>
			</trkpt>
			<trkpt lat="50.748783" lon="15.783966">
				<ele>1040.000000</ele>
			</trkpt>
			<trkpt lat="50.748822" lon="15.783857">
				<ele>1037.000000</ele>
			</trkpt>
			<trkpt lat="50.748885" lon="15.783597">
				<ele>1031.000000</ele>
			</trkpt>
			<trkpt lat="50.748913" lon="15.783553">
				<ele>1030.000000</ele>
			</trkpt>
			<trkpt lat="50.748953" lon="15.783606">
				<ele>1029.000000</ele>
			</trkpt>
			<trkpt lat="50.748964" lon="15.783714">
				<ele>1027.000000</ele>
			</trkpt>
			<trkpt lat="50.749005" lon="15.783893">
				<ele>1023.000000</ele>
			</trkpt>
			<trkpt lat="50.749021" lon="15.783983">
				<ele>1022.000000</ele>
			</trkpt>
			<trkpt lat="50.749078" lon="15.784190">
				<ele>1019.000000</ele>
			</trkpt>
			<trkpt lat="50.749101" lon="15.784343">
				<ele>1017.000000</ele>
			</trkpt>
			<trkpt lat="50.749135" lon="15.784442">
				<ele>1016.000000</ele>
			</trkpt>
			<trkpt lat="50.749157" lon="15.784496">
				<ele>1016.000000</ele>
			</trkpt>
			<trkpt lat="50.749198" lon="15.784522">
				<ele>1015.000000</ele>
			</trkpt>
			<trkpt lat="50.749265" lon="15.784496">
				<ele>1014.000000</ele>
			</trkpt>
			<trkpt lat="50.749322" lon="15.784442">
				<ele>1013.000000</ele>
			</trkpt>
			<trkpt lat="50.749385" lon="15.784360">
				<ele>1012.000000</ele>
			</trkpt>
			<trkpt lat="50.749465" lon="15.784298">
				<ele>1010.000000</ele>
			</trkpt>
			<trkpt lat="50.749538" lon="15.784217">
				<ele>1008.000000</ele>
			</trkpt>
			<trkpt lat="50.749613" lon="15.784109">
				<ele>1006.000000</ele>
			</trkpt>
			<trkpt lat="50.749652" lon="15.784056">
				<ele>1004.000000</ele>
			</trkpt>
			<trkpt lat="50.749715" lon="15.784020">
				<ele>1003.000000</ele>
			</trkpt>
			<trkpt lat="50.749840" lon="15.783867">
				<ele>999.000000</ele>
			</trkpt>
			<trkpt lat="50.749948" lon="15.783777">
				<ele>996.000000</ele>
			</trkpt>
			<trkpt lat="50.750027" lon="15.783714">
				<ele>994.000000</ele>
			</trkpt>
			<trkpt lat="50.750118" lon="15.783651">
				<ele>991.000000</ele>
			</trkpt>
			<trkpt lat="50.750226" lon="15.783553">
				<ele>988.000000</ele>
			</trkpt>
			<trkpt lat="50.750323" lon="15.783480">
				<ele>985.000000</ele>
			</trkpt>
			<trkpt lat="50.750403" lon="15.783408">
				<ele>983.000000</ele>
			</trkpt>
			<trkpt lat="50.750556" lon="15.783310">
				<ele>979.000000</ele>
			</trkpt>
			<trkpt lat="50.750755" lon="15.783138">
				<ele>973.000000</ele>
			</trkpt>
			<trkpt lat="50.750942" lon="15.782932">
				<ele>966.000000</ele>
			</trkpt>
			<trkpt lat="50.751073" lon="15.782788">
				<ele>961.000000</ele>
			</trkpt>
			<trkpt lat="50.751261" lon="15.782591">
				<ele>955.000000</ele>
			</trkpt>
			<trkpt lat="50.751437" lon="15.782375">
				<ele>948.000000</ele>
			</trkpt>
			<trkpt lat="50.751505" lon="15.782322">
				<ele>946.000000</ele>
			</trkpt>
			<trkpt lat="50.751533" lon="15.782259">
				<ele>945.000000</ele>
			</trkpt>
			<trkpt lat="50.751551" lon="15.782205">
				<ele>944.000000</ele>
			</trkpt>
			<trkpt lat="50.751516" lon="15.782151">
				<ele>943.000000</ele>
			</trkpt>
			<trkpt lat="50.751448" lon="15.782096">
				<ele>940.000000</ele>
			</trkpt>
			<trkpt lat="50.751358" lon="15.782016">
				<ele>938.000000</ele>
			</trkpt>
			<trkpt lat="50.751323" lon="15.781909">
				<ele>935.000000</ele>
			</trkpt>
			<trkpt lat="50.751312" lon="15.781836">
				<ele>934.000000</ele>
			</trkpt>
			<trkpt lat="50.751351" lon="15.781702">
				<ele>932.000000</ele>
			</trkpt>
			<trkpt lat="50.751402" lon="15.781620">
				<ele>930.000000</ele>
			</trkpt>
			<trkpt lat="50.751488" lon="15.781441">
				<ele>926.000000</ele>
			</trkpt>
			<trkpt lat="50.751551" lon="15.781297">
				<ele>923.000000</ele>
			</trkpt>
			<trkpt lat="50.751681" lon="15.781073">
				<ele>918.000000</ele>
			</trkpt>
			<trkpt lat="50.751846" lon="15.780804">
				<ele>913.000000</ele>
			</trkpt>
			<trkpt lat="50.751948" lon="15.780588">
				<ele>908.000000</ele>
			</trkpt>
			<trkpt lat="50.752045" lon="15.780337">
				<ele>904.000000</ele>
			</trkpt>
			<trkpt lat="50.752170" lon="15.780022">
				<ele>898.000000</ele>
			</trkpt>
			<trkpt lat="50.752249" lon="15.779716">
				<ele>893.000000</ele>
			</trkpt>
			<trkpt lat="50.752301" lon="15.779618">
				<ele>891.000000</ele>
			</trkpt>
			<trkpt lat="50.752363" lon="15.779555">
				<ele>890.000000</ele>
			</trkpt>
			<trkpt lat="50.752432" lon="15.779536">
				<ele>889.000000</ele>
			</trkpt>
			<trkpt lat="50.752540" lon="15.779519">
				<ele>888.000000</ele>
			</trkpt>
			<trkpt lat="50.752682" lon="15.779420">
				<ele>886.000000</ele>
			</trkpt>
			<trkpt lat="50.752733" lon="15.779375">
				<ele>885.000000</ele>
			</trkpt>
			<trkpt lat="50.752852" lon="15.779312">
				<ele>884.000000</ele>
			</trkpt>
			<trkpt lat="50.752892" lon="15.779276">
				<ele>883.000000</ele>
			</trkpt>
			<trkpt lat="50.752977" lon="15.779205">
				<ele>882.000000</ele>
			</trkpt>
			<trkpt lat="50.753045" lon="15.779159">
				<ele>881.000000</ele>
			</trkpt>
			<trkpt lat="50.753130" lon="15.779088">
				<ele>880.000000</ele>
			</trkpt>
			<trkpt lat="50.753250" lon="15.778962">
				<ele>879.000000</ele>
			</trkpt>
			<trkpt lat="50.753438" lon="15.778756">
				<ele>876.000000</ele>
			</trkpt>
			<trkpt lat="50.753585" lon="15.778576">
				<ele>874.000000</ele>
			</trkpt>
			<trkpt lat="50.753659" lon="15.778513">
				<ele>873.000000</ele>
			</trkpt>
			<trkpt lat="50.753755" lon="15.778467">
				<ele>872.000000</ele>
			</trkpt>
			<trkpt lat="50.753886" lon="15.778369">
				<ele>870.000000</ele>
			</trkpt>
			<trkpt lat="50.754046" lon="15.778190">
				<ele>867.000000</ele>
			</trkpt>
			<trkpt lat="50.754250" lon="15.777901">
				<ele>862.000000</ele>
			</trkpt>
			<trkpt lat="50.754404" lon="15.777677">
				<ele>859.000000</ele>
			</trkpt>
			<trkpt lat="50.754614" lon="15.777381">
				<ele>855.000000</ele>
			</trkpt>
			<trkpt lat="50.754716" lon="15.777255">
				<ele>853.000000</ele>
			</trkpt>
			<trkpt lat="50.754818" lon="15.777066">
				<ele>850.000000</ele>
			</trkpt>
			<trkpt lat="50.754944" lon="15.776833">
				<ele>848.000000</ele>
			</trkpt>
			<trkpt lat="50.754995" lon="15.776770">
				<ele>847.000000</ele>
			</trkpt>
			<trkpt lat="50.755052" lon="15.776698">
				<ele>846.000000</ele>
			</trkpt>
			<trkpt lat="50.755137" lon="15.776617">
				<ele>845.000000</ele>
			</trkpt>
			<trkpt lat="50.755217" lon="15.776546">
				<ele>844.000000</ele>
			</trkpt>
			<trkpt lat="50.755233" lon="15.776536">
				<ele>844.000000</ele>
			</trkpt>
			<trkpt lat="50.755330" lon="15.776410">
				<ele>842.000000</ele>
			</trkpt>
			<trkpt lat="50.755358" lon="15.776366">
				<ele>842.000000</ele>
			</trkpt>
			<trkpt lat="50.755444" lon="15.776240">
				<ele>841.000000</ele>
			</trkpt>
			<trkpt lat="50.755534" lon="15.776051">
				<ele>839.000000</ele>
			</trkpt>
			<trkpt lat="50.755563" lon="15.775961">
				<ele>838.000000</ele>
			</trkpt>
			<trkpt lat="50.755631" lon="15.775638">
				<ele>836.000000</ele>
			</trkpt>
			<trkpt lat="50.755642" lon="15.775557">
				<ele>835.000000</ele>
			</trkpt>
			<trkpt lat="50.755677" lon="15.775423">
				<ele>834.000000</ele>
			</trkpt>
			<trkpt lat="50.755683" lon="15.775251">
				<ele>833.000000</ele>
			</trkpt>
			<trkpt lat="50.755677" lon="15.775153">
				<ele>832.000000</ele>
			</trkpt>
			<trkpt lat="50.755648" lon="15.775064">
				<ele>831.000000</ele>
			</trkpt>
			<trkpt lat="50.755557" lon="15.774901">
				<ele>829.000000</ele>
			</trkpt>
			<trkpt lat="50.755455" lon="15.774712">
				<ele>827.000000</ele>
			</trkpt>
			<trkpt lat="50.755410" lon="15.774605">
				<ele>826.000000</ele>
			</trkpt>
			<trkpt lat="50.755364" lon="15.774443">
				<ele>824.000000</ele>
			</trkpt>
			<trkpt lat="50.755307" lon="15.774291">
				<ele>822.000000</ele>
			</trkpt>
			<trkpt lat="50.755217" lon="15.774056">
				<ele>820.000000</ele>
			</trkpt>
			<trkpt lat="50.755142" lon="15.773787">
				<ele>817.000000</ele>
			</trkpt>
			<trkpt lat="50.755080" lon="15.773464">
				<ele>814.000000</ele>
			</trkpt>
			<trkpt lat="50.755029" lon="15.773293">
				<ele>813.000000</ele>
			</trkpt>
			<trkpt lat="50.754995" lon="15.773069">
				<ele>811.000000</ele>
			</trkpt>
			<trkpt lat="50.755006" lon="15.772970">
				<ele>810.000000</ele>
			</trkpt>
			<trkpt lat="50.755046" lon="15.772754">
				<ele>808.000000</ele>
			</trkpt>
			<trkpt lat="50.755109" lon="15.772530">
				<ele>805.000000</ele>
			</trkpt>
			<trkpt lat="50.755199" lon="15.772368">
				<ele>803.000000</ele>
			</trkpt>
			<trkpt lat="50.755398" lon="15.772108">
				<ele>799.000000</ele>
			</trkpt>
			<trkpt lat="50.755529" lon="15.771928">
				<ele>796.000000</ele>
			</trkpt>
			<trkpt lat="50.755642" lon="15.771722">
				<ele>792.000000</ele>
			</trkpt>
			<trkpt lat="50.755705" lon="15.771614">
				<ele>791.000000</ele>
			</trkpt>
			<trkpt lat="50.755762" lon="15.771524">
				<ele>790.000000</ele>
			</trkpt>
			<trkpt lat="50.755955" lon="15.771129">
				<ele>785.000000</ele>
			</trkpt>
			<trkpt lat="50.756012" lon="15.771003">
				<ele>784.000000</ele>
			</trkpt>
			<trkpt lat="50.756057" lon="15.770913">
				<ele>783.000000</ele>
			</trkpt>
			<trkpt lat="50.756137" lon="15.770823">
				<ele>781.000000</ele>
			</trkpt>
			<trkpt lat="50.756262" lon="15.770760">
				<ele>779.000000</ele>
			</trkpt>
			<trkpt lat="50.756347" lon="15.770733">
				<ele>778.000000</ele>
			</trkpt>
			<trkpt lat="50.756455" lon="15.770716">
				<ele>777.000000</ele>
			</trkpt>
			<trkpt lat="50.756682" lon="15.770634">
				<ele>773.000000</ele>
			</trkpt>
			<trkpt lat="50.757029" lon="15.770454">
				<ele>768.000000</ele>
			</trkpt>
			<trkpt lat="50.757199" lon="15.770364">
				<ele>766.000000</ele>
			</trkpt>
			<trkpt lat="50.757291" lon="15.770320">
				<ele>764.000000</ele>
			</trkpt>
			<trkpt lat="50.757467" lon="15.770221">
				<ele>762.000000</ele>
			</trkpt>
			<trkpt lat="50.757683" lon="15.770077">
				<ele>758.000000</ele>
			</trkpt>
			<trkpt lat="50.757842" lon="15.769988">
				<ele>756.000000</ele>
			</trkpt>
			<trkpt lat="50.757961" lon="15.769871">
				<ele>754.000000</ele>
			</trkpt>
			<trkpt lat="50.758092" lon="15.769790">
				<ele>752.000000</ele>
			</trkpt>
			<trkpt lat="50.758239" lon="15.769737">
				<ele>750.000000</ele>
			</trkpt>
			<trkpt lat="50.758444" lon="15.769674">
				<ele>747.000000</ele>
			</trkpt>
			<trkpt lat="50.758524" lon="15.769601">
				<ele>746.000000</ele>
			</trkpt>
			<trkpt lat="50.758586" lon="15.769538">
				<ele>745.000000</ele>
			</trkpt>
			<trkpt lat="50.758723" lon="15.769341">
				<ele>743.000000</ele>
			</trkpt>
			<trkpt lat="50.758842" lon="15.769233">
				<ele>742.000000</ele>
			</trkpt>
			<trkpt lat="50.759035" lon="15.769116">
				<ele>739.000000</ele>
			</trkpt>
			<trkpt lat="50.759171" lon="15.769053">
				<ele>737.000000</ele>
			</trkpt>
			<trkpt lat="50.759296" lon="15.768982">
				<ele>735.000000</ele>
			</trkpt>
			<trkpt lat="50.759422" lon="15.768909">
				<ele>733.000000</ele>
			</trkpt>
			<trkpt lat="50.759603" lon="15.768811">
				<ele>731.000000</ele>
			</trkpt>
			<trkpt lat="50.760024" lon="15.768542">
				<ele>723.000000</ele>
			</trkpt>
			<trkpt lat="50.760115" lon="15.768460">
				<ele>723.000000</ele>
			</trkpt>
			<trkpt lat="50.761092" lon="15.767257">
				<ele>719.000000</ele>
			</trkpt>
			<trkpt lat="50.761195" lon="15.767104">
				<ele>719.000000</ele>
			</trkpt>
			<trkpt lat="50.761348" lon="15.766852">
				<ele>718.000000</ele>
			</trkpt>
			<trkpt lat="50.761467" lon="15.766521">
				<ele>718.000000</ele>
			</trkpt>
			<trkpt lat="50.761564" lon="15.766278">
				<ele>717.000000</ele>
			</trkpt>
			<trkpt lat="50.761626" lon="15.766045">
				<ele>717.000000</ele>
			</trkpt>
			<trkpt lat="50.761649" lon="15.765865">
				<ele>717.000000</ele>
			</trkpt>
			<trkpt lat="50.761655" lon="15.765720">
				<ele>716.000000</ele>
			</trkpt>
			<trkpt lat="50.761615" lon="15.765523">
				<ele>716.000000</ele>
			</trkpt>
			<trkpt lat="50.761512" lon="15.765200">
				<ele>716.000000</ele>
			</trkpt>
			<trkpt lat="50.761507" lon="15.765064">
				<ele>715.000000</ele>
			</trkpt>
			<trkpt lat="50.761524" lon="15.764948">
				<ele>715.000000</ele>
			</trkpt>
			<trkpt lat="50.761569" lon="15.764877">
				<ele>715.000000</ele>
			</trkpt>
			<trkpt lat="50.761785" lon="15.764670">
				<ele>715.000000</ele>
			</trkpt>
			<trkpt lat="50.761916" lon="15.764517">
				<ele>714.000000</ele>
			</trkpt>
			<trkpt lat="50.761990" lon="15.764364">
				<ele>714.000000</ele>
			</trkpt>
			<trkpt lat="50.762081" lon="15.764112">
				<ele>713.000000</ele>
			</trkpt>
			<trkpt lat="50.762160" lon="15.763825">
				<ele>713.000000</ele>
			</trkpt>
			<trkpt lat="50.762291" lon="15.763089">
				<ele>712.000000</ele>
			</trkpt>
			<trkpt lat="50.762348" lon="15.762766">
				<ele>711.000000</ele>
			</trkpt>
			<trkpt lat="50.762399" lon="15.762559">
				<ele>711.000000</ele>
			</trkpt>
			<trkpt lat="50.762479" lon="15.762324">
				<ele>711.000000</ele>
			</trkpt>
			<trkpt lat="50.762598" lon="15.762118">
				<ele>710.000000</ele>
			</trkpt>
			<trkpt lat="50.762700" lon="15.761993">
				<ele>710.000000</ele>
			</trkpt>
			<trkpt lat="50.762905" lon="15.762020">
				<ele>708.000000</ele>
			</trkpt>
			<trkpt lat="50.763206" lon="15.762127">
				<ele>704.000000</ele>
			</trkpt>
			<trkpt lat="50.763434" lon="15.762181">
				<ele>701.000000</ele>
			</trkpt>
			<trkpt lat="50.763575" lon="15.762181">
				<ele>700.000000</ele>
			</trkpt>
			<trkpt lat="50.763604" lon="15.762137">
				<ele>699.000000</ele>
			</trkpt>
			<trkpt lat="50.763769" lon="15.762001">
				<ele>697.000000</ele>
			</trkpt>
			<trkpt lat="50.763893" lon="15.761938">
				<ele>696.000000</ele>
			</trkpt>
			<trkpt lat="50.764036" lon="15.761911">
				<ele>694.000000</ele>
			</trkpt>
			<trkpt lat="50.764223" lon="15.761911">
				<ele>692.000000</ele>
			</trkpt>
			<trkpt lat="50.764541" lon="15.761948">
				<ele>689.000000</ele>
			</trkpt>
			<trkpt lat="50.764632" lon="15.761966">
				<ele>688.000000</ele>
			</trkpt>
			<trkpt lat="50.764877" lon="15.761984">
				<ele>685.000000</ele>
			</trkpt>
			<trkpt lat="50.765053" lon="15.762001">
				<ele>683.000000</ele>
			</trkpt>
			<trkpt lat="50.765183" lon="15.761974">
				<ele>682.000000</ele>
			</trkpt>
			<trkpt lat="50.765343" lon="15.761930">
				<ele>680.000000</ele>
			</trkpt>
			<trkpt lat="50.765467" lon="15.761894">
				<ele>679.000000</ele>
			</trkpt>
			<trkpt lat="50.765723" lon="15.761787">
				<ele>676.000000</ele>
			</trkpt>
			<trkpt lat="50.766155" lon="15.761607">
				<ele>671.000000</ele>
			</trkpt>
			<trkpt lat="50.766155" lon="15.761607">
				<ele>670.000000</ele>
			</trkpt>
		</trkseg>
	</trk>
</gpx>

